,name,link,address,city,state,ratings,zipcode,1 BED,2 BEDS,3 BEDS,Studio,2+ BEDS,3+ BEDS,4 BEDS,5 BEDS
0,MAA Patterson,https://www.rentcafe.com/apartments/nc/durham/maa-patterson/default.aspx,100 Northcreek Drive,Durham,NC,3.50,27707,"$1,308+","$1,508+","$1,718+",,,,,
1,"Parkview Apt, LLC",https://www.rentcafe.com/apartments/nc/lexington/parkview-apt-llc/default.aspx,215-217 W. 3Rd Ave.,Lexington,NC,4.50,27292,Ask for pricing,$975,"$1,718+",,,,,
2,1133 Pickett Road,https://www.rentcafe.com/apartments/nc/jacksonville/1133-pickett-road/default.aspx,1133 Pickett Road,Jacksonville,NC,4.50,28540,Ask for pricing,$975,"$1,718+",$450,,,,
3,MAA Trinity,https://www.rentcafe.com/apartments/nc/raleigh/maa-trinity/default.aspx,1140 Trinity Pine Lane,Raleigh,NC,3.00,27607,"$1,318+","$1,568+","$1,778+",$450,,,,
4,Tapestry Tyvola,https://www.rentcafe.com/apartments/nc/charlotte/tapestry-tyvola/default.aspx,2051 Establishment Way,Charlotte,NC,3.00,28217,"$1,524+","$1,568+","$1,778+","$1,389+","$1,815+",,,
5,Wesley South At East Carolina,https://www.rentcafe.com/apartments/nc/greenville/wesley-south-at-east-carolina/default.aspx,108 Brownlea Drive,Greenville,NC,3.00,27858,$725,Ask for pricing,"$1,778+","$1,389+","$1,815+",,,
6,2830 Donovan Place,https://www.rentcafe.com/apartments/nc/raleigh/2830-donovan-place/default.aspx,2830 Donovan Place,Raleigh,NC,3.00,27610,$725,Ask for pricing,"$1,700","$1,389+","$1,815+",,,
7,MAA Prosperity Creek,https://www.rentcafe.com/apartments/nc/charlotte/maa-prosperity-creek/default.aspx,3025 Mallard Hill Drive,Charlotte,NC,3.50,28269,"$1,288+","$1,538+",Ask for pricing,"$1,389+","$1,815+",,,
8,Lochridge,https://www.rentcafe.com/apartments/nc/durham/lochridge/default.aspx,100 Lochridge Drive,Durham,NC,3.50,27713,"$1,288+",Ask for pricing,"$1,878+","$1,389+","$1,815+",,,
9,MAA Uptown,https://www.rentcafe.com/apartments/nc/charlotte/maa-uptown/default.aspx,305 N. Graham Street,Charlotte,NC,3.50,28202,"$1,430+",Ask for pricing,"$1,878+","$1,395+","$2,035+",,,
10,Hawk's Nest,https://www.rentcafe.com/apartments/nc/durham/hawk-s-nest/default.aspx,3400 Sandy Creek Drive,Durham,NC,3.50,27705,"$1,430+",Ask for pricing,"$1,878+","$1,395+","$2,035+",,,
11,Neon Genesis Towers,https://www.rentcafe.com/apartments/nc/tokyo-3/neon-genesis-towers/default.aspx,Neon Genesis Towers,Tokyo 3,NC,3.50,27614,$875,$950,"$1,878+","$1,395+","$2,035+","$1,125",,
12,Saddlebrook Townhomes,https://www.rentcafe.com/apartments/nc/fayetteville/saddlebrook0/default.aspx,4828 Durango Ct,Fayetteville,NC,3.50,28304,$875,"$1,195","$1,878+","$1,395+","$2,035+","$1,125",,
13,Lenox West,https://www.rentcafe.com/apartments/nc/durham/lenox-west/default.aspx,100 Remington Circle,Durham,NC,3.50,27705,$875,"$1,195","$1,878+","$1,395+","$2,035+","$1,125",,
14,Allister North Hills,https://www.rentcafe.com/apartments/nc/raleigh/allister-north-hills0/default.aspx,430 Allister Drive,Raleigh,NC,4.50,27609,"$1,772+","$1,195","$1,878+","$1,273+","$2,200+","$1,125",,
15,Merriwood Apartments,https://www.rentcafe.com/apartments/nc/cary/merriwood-apartments/default.aspx,903 Kensington Drive,Cary,NC,4.50,27511,"$1,175","$1,325","$1,525","$1,273+","$2,200+","$1,125",,
16,671 West King St,https://www.rentcafe.com/apartments/nc/boone/671-west-king-st/default.aspx,671 West King St,Boone,NC,4.50,28607,"$1,175",Ask for pricing,"$1,525",$700,"$2,200+","$1,125",,
17,Nu Wesley Apartments,https://www.rentcafe.com/apartments/nc/charlotte/nu-wesley/default.aspx,Mcquay Street,Charlotte,NC,3.50,28208,Ask for pricing,"$1,150","$1,525",$700,"$2,200+","$1,125",,
18,Hawthorne At Holly Springs,https://www.rentcafe.com/apartments/nc/holly-springs/hawthorne-at-holly-springs/default.aspx,6000 Forest Village Drive,Holly Springs,NC,3.50,27540,"$1,450+","$1,650+","$2,040+",$700,"$2,200+","$1,125",,
19,306 McCauley,https://www.rentcafe.com/apartments/nc/chapel-hill/306-mccauley/default.aspx,306 Mccauley,Chapel Hill,NC,3.50,27516,"$1,450+","$1,650+","$2,040+",$700,"$2,200+","$1,125",,
20,The Providence At Brier Creek,https://www.rentcafe.com/apartments/nc/raleigh/the-providence-at-brier-creek/default.aspx,10100 Donerail Way,Raleigh,NC,4.00,27617,"$1,293+","$1,793+",Ask for pricing,$700,"$2,200+","$1,125",,
21,The Cove At Matthews,https://www.rentcafe.com/apartments/nc/matthews/the-cove-at-matthews/default.aspx,1701 Gander Cove Lane,Matthews,NC,3.00,28105,"$1,293+","$1,793+",Ask for pricing,$700,"$2,200+","$1,125",,
22,MAA Reserve,https://www.rentcafe.com/apartments/nc/charlotte/maa-reserve/default.aspx,2720 South Boulevard,Charlotte,NC,3.50,28209,"$1,613+","$2,533+",Ask for pricing,"$1,488+","$2,200+","$1,125",,
23,MAA Ballantyne,https://www.rentcafe.com/apartments/nc/charlotte/maa-ballantyne/default.aspx,14205 Ballantyne Lake Road,Charlotte,NC,4.00,28277,"$1,570+","$2,270+",Ask for pricing,"$1,488+","$2,200+","$3,020+",,
24,1275 Mount Moriah Church Road,https://www.rentcafe.com/apartments/nc/china-grove/1275-mount-moriah-church-road/default.aspx,1275 Mount Moriah Church Road,China Grove,NC,4.00,28023,"$1,570+","$1,450",Ask for pricing,"$1,488+","$2,200+","$3,020+",,
25,"Robinson Rentals & Renovations, LLC",https://www.rentcafe.com/apartments/nc/burlington/robinson-rentals-renovations-llc/default.aspx,852 S. Main St.,Burlington,NC,4.00,27215,Ask for pricing,$775,Ask for pricing,Ask for pricing,"$2,200+","$3,020+",,
26,517 Kenway Street,https://www.rentcafe.com/apartments/nc/garner/517-kenway-street-0/default.aspx,517 Kenway Street,Garner,NC,4.00,27529,Ask for pricing,$775,"$1,700",Ask for pricing,"$2,200+","$3,020+",,
27,Highgate Townhomes,https://www.rentcafe.com/apartments/nc/durham/highgate-townhomes/default.aspx,100 Highgate Drive,Durham,NC,4.00,27713,Ask for pricing,$775,"$1,700",Ask for pricing,"$2,200+","$3,020+",,
28,Phillips Landing Apartments,https://www.rentcafe.com/apartments/nc/statesville/phillips-landing-apartments/default.aspx,501 Phillips Lane,Statesville,NC,4.50,28625,$915,"$1,075","$1,250",Ask for pricing,"$2,200+","$3,020+",,
29,1301-1305-1309 Byron St,https://www.rentcafe.com/apartments/nc/winston-salem/1301-1305-1309-byron-st/default.aspx,Byron Street,Winston-Salem,NC,4.50,27105,$915,$550,"$1,250",Ask for pricing,"$2,200+","$3,020+",,
30,MAA Ayrsley,https://www.rentcafe.com/apartments/nc/charlotte/maa-ayrsley/default.aspx,9005 Lenox Pointe Drive,Charlotte,NC,3.50,28273,"$1,258+","$1,448+","$1,803+",Ask for pricing,"$2,200+","$3,020+",,
31,146 E Bell Street,https://www.rentcafe.com/apartments/nc/statesville/146-e-bell-street/default.aspx,146 E Bell Street,Statesville,NC,3.50,28677,$800+,"$1,350","$1,803+",Ask for pricing,"$2,200+","$3,020+",,
32,Bedford Market,https://www.rentcafe.com/apartments/nc/raleigh/bedford-market/default.aspx,1540 Dunn Road,Raleigh,NC,3.50,27615,$800+,"$1,350","$1,803+",Ask for pricing,"$2,200+","$3,020+",,
33,Forest Wind Apartments,https://www.rentcafe.com/apartments/nc/kernersville/forest-winds-apartments0/default.aspx,Forest Winds Apts,Kernersville,NC,3.50,27284,$600,"$1,350","$1,803+",Ask for pricing,"$2,200+","$3,020+",,
34,MAA Chancellor Park,https://www.rentcafe.com/apartments/nc/charlotte/maa-chancellor-park/default.aspx,8215 University Ridge Drive,Charlotte,NC,4.50,28213,"$1,183+","$1,503+","$1,638+",Ask for pricing,"$2,200+","$3,020+",,
35,The Pointe At Irving Park,https://www.rentcafe.com/apartments/nc/greensboro/the-pointe-at-irving-park-0/default.aspx,3100 North Elm Street,Greensboro,NC,4.00,27408,"$1,183+","$1,503+","$1,638+",Ask for pricing,"$2,200+","$3,020+",,
36,Cinnamon Ridge,https://www.rentcafe.com/apartments/nc/greensboro/cinnamon-ridge1/default.aspx,18 Sails Way,Greensboro,NC,3.00,27406,$750,$850,"$1,638+",Ask for pricing,"$2,200+","$3,020+",,
37,Reserve At Arringdon,https://www.rentcafe.com/apartments/nc/morrisville/reserve-at-arringdon/default.aspx,5710 Arringdon Park Drive,Morrisville,NC,4.00,27560,"$1,373+","$1,533+",Ask for pricing,Ask for pricing,"$2,200+","$3,020+",,
38,MAA Duke Forest,https://www.rentcafe.com/apartments/nc/durham/maa-duke-forest/default.aspx,910 Constitution Drive,Durham,NC,3.00,27705,"$1,388+","$1,498+",Ask for pricing,Ask for pricing,"$2,200+","$3,020+",,
39,MAA 1225,https://www.rentcafe.com/apartments/nc/charlotte/maa-1225/default.aspx,1225 S Church St,Charlotte,NC,4.50,28203,"$1,653+","$1,498+",Ask for pricing,"$1,598+","$2,293+","$3,020+",,
40,850 Foxwood PLace,https://www.rentcafe.com/apartments/nc/winston-salem/850-foxwood-place/default.aspx,850 Foxwood Place,Winston-Salem,NC,4.50,27127,"$1,653+",$625+,Ask for pricing,"$1,598+","$2,293+","$3,020+",,
41,MAA Legacy Park,https://www.rentcafe.com/apartments/nc/charlotte/maa-legacy-park/default.aspx,8810 Legacy Park Drive,Charlotte,NC,5.00,28269,"$1,130+","$1,488+",Ask for pricing,"$1,598+","$2,293+","$3,020+",,
42,"7944 Suttonview Drive Charlotte, NC 28269",https://www.rentcafe.com/apartments/nc/charlotte/7944-suttonview-drive-charlotte-nc-28269-0/default.aspx,7944 Suttonview Drive,Charlotte,NC,5.00,28269,"$1,130+","$1,488+",Ask for pricing,"$1,598+","$2,293+","$3,020+","$2,845",
43,"328 Woodsboro Place Benson, NC 27504",https://www.rentcafe.com/apartments/nc/benson/328-woodsboro-place-benson-nc-27504/default.aspx,328 Woodsboro Place,Benson,NC,5.00,27504,"$1,130+","$1,488+","$1,925","$1,598+","$2,293+","$3,020+","$2,845",
44,"2611 White Fence Way High Point, NC 27265",https://www.rentcafe.com/apartments/nc/high-point/2611-white-fence-way-high-point-nc-27265/default.aspx,2611 White Fence Way,High Point,NC,5.00,27265,"$1,130+","$1,488+","$1,925","$1,598+","$2,293+","$3,020+","$2,845","$2,695"
45,"8409 Conner Ridge Lane Charlotte, NC 28269",https://www.rentcafe.com/apartments/nc/charlotte/8409-conner-ridge-lane-charlotte-nc-28269/default.aspx,8409 Conner Ridge Lane,Charlotte,NC,5.00,28269,"$1,130+","$1,488+","$1,925","$1,598+","$2,293+","$3,020+","$2,045","$2,695"
46,Neuse Town,https://www.rentcafe.com/apartments/nc/raleigh/neuse-town0/default.aspx,8714 Neuse Town,Raleigh,NC,5.00,27616,"$1,130+","$1,488+","$1,925","$1,598+","$2,293+","$3,020+","$2,045","$2,695"
47,"Front St, LLC",https://www.rentcafe.com/apartments/nc/burlington/front-st-llc/default.aspx,286 E Front St.,BURLINGTON,NC,5.00,27215,"$1,130+","$1,488+","$1,925","$1,598+","$2,293+","$3,020+","$2,045","$2,695"
48,"1204 Crabtree Drive Winston Salem, NC 27127",https://www.rentcafe.com/apartments/nc/winston-salem/1204-crabtree-drive-winston-salem-nc-27127/default.aspx,1204 Crabtree Drive,Winston Salem,NC,5.00,27127,"$1,130+","$1,488+","$1,895","$1,598+","$2,293+","$3,020+","$2,045","$2,695"
49,"7362 Mill Ruins Avenue Southwest Concord, NC 28025",https://www.rentcafe.com/apartments/nc/concord/7362-mill-ruins-avenue-southwest-concord-nc-28025/default.aspx,7362 Mill Ruins Avenue Southwest,Concord,NC,5.00,28025,"$1,130+","$1,488+","$1,895","$1,598+","$2,293+","$3,020+","$2,645","$2,695"
50,MAA Patterson,https://www.rentcafe.com/apartments/nc/durham/maa-patterson/default.aspx,"100 Northcreek Drive,",Durham,NC,5.00,27707,"$1,308+","$1,508+","$1,718+","$1,598+","$2,293+","$3,020+","$2,645","$2,695"
51,"Parkview Apt, LLC",https://www.rentcafe.com/apartments/nc/lexington/parkview-apt-llc/default.aspx,"215-217 W. 3Rd Ave.,",Lexington,NC,5.00,27292,Ask for pricing,$975,"$1,718+","$1,598+","$2,293+","$3,020+","$2,645","$2,695"
52,1133 Pickett Road,https://www.rentcafe.com/apartments/nc/jacksonville/1133-pickett-road/default.aspx,"1133 Pickett Road,",Jacksonville,NC,5.00,28540,Ask for pricing,$975,"$1,718+",$450,"$2,293+","$3,020+","$2,645","$2,695"
53,MAA Trinity,https://www.rentcafe.com/apartments/nc/raleigh/maa-trinity/default.aspx,"1140 Trinity Pine Lane,",Raleigh,NC,5.00,27607,"$1,318+","$1,568+","$1,778+",$450,"$2,293+","$3,020+","$2,645","$2,695"
54,Tapestry Tyvola,https://www.rentcafe.com/apartments/nc/charlotte/tapestry-tyvola/default.aspx,"2051 Establishment Way,",Charlotte,NC,5.00,28217,"$1,524+","$1,568+","$1,778+","$1,389+","$1,815+","$3,020+","$2,645","$2,695"
55,Wesley South At East Carolina,https://www.rentcafe.com/apartments/nc/greenville/wesley-south-at-east-carolina/default.aspx,"108 Brownlea Drive,",Greenville,NC,5.00,27858,$725,Ask for pricing,"$1,778+","$1,389+","$1,815+","$3,020+","$2,645","$2,695"
56,2830 Donovan Place,https://www.rentcafe.com/apartments/nc/raleigh/2830-donovan-place/default.aspx,"2830 Donovan Place,",Raleigh,NC,5.00,27610,$725,Ask for pricing,"$1,700","$1,389+","$1,815+","$3,020+","$2,645","$2,695"
57,MAA Prosperity Creek,https://www.rentcafe.com/apartments/nc/charlotte/maa-prosperity-creek/default.aspx,"3025 Mallard Hill Drive,",Charlotte,NC,5.00,28269,"$1,288+","$1,538+",Ask for pricing,"$1,389+","$1,815+","$3,020+","$2,645","$2,695"
58,Lochridge,https://www.rentcafe.com/apartments/nc/durham/lochridge/default.aspx,"100 Lochridge Drive,",Durham,NC,5.00,27713,"$1,288+",Ask for pricing,"$1,878+","$1,389+","$1,815+","$3,020+","$2,645","$2,695"
59,MAA Uptown,https://www.rentcafe.com/apartments/nc/charlotte/maa-uptown/default.aspx,"305 N. Graham Street,",Charlotte,NC,5.00,28202,"$1,430+",Ask for pricing,"$1,878+","$1,395+","$2,035+","$3,020+","$2,645","$2,695"
60,Hawk's Nest,https://www.rentcafe.com/apartments/nc/durham/hawk-s-nest/default.aspx,"3400 Sandy Creek Drive,",Durham,NC,5.00,27705,"$1,430+",Ask for pricing,"$1,878+","$1,395+","$2,035+","$3,020+","$2,645","$2,695"
61,Neon Genesis Towers,https://www.rentcafe.com/apartments/nc/tokyo-3/neon-genesis-towers/default.aspx,"Neon Genesis Towers,",Tokyo 3,NC,5.00,27614,$875,$950,"$1,878+","$1,395+","$2,035+","$1,125","$2,645","$2,695"
62,Saddlebrook Townhomes,https://www.rentcafe.com/apartments/nc/fayetteville/saddlebrook0/default.aspx,"4828 Durango Ct,",Fayetteville,NC,5.00,28304,$875,"$1,195","$1,878+","$1,395+","$2,035+","$1,125","$2,645","$2,695"
63,Lenox West,https://www.rentcafe.com/apartments/nc/durham/lenox-west/default.aspx,"100 Remington Circle,",Durham,NC,5.00,27705,$875,"$1,195","$1,878+","$1,395+","$2,035+","$1,125","$2,645","$2,695"
64,Allister North Hills,https://www.rentcafe.com/apartments/nc/raleigh/allister-north-hills0/default.aspx,"430 Allister Drive,",Raleigh,NC,5.00,27609,"$1,772+","$1,195","$1,878+","$1,273+","$2,200+","$1,125","$2,645","$2,695"
65,Merriwood Apartments,https://www.rentcafe.com/apartments/nc/cary/merriwood-apartments/default.aspx,"903 Kensington Drive,",Cary,NC,5.00,27511,"$1,175","$1,325","$1,525","$1,273+","$2,200+","$1,125","$2,645","$2,695"
66,671 West King St,https://www.rentcafe.com/apartments/nc/boone/671-west-king-st/default.aspx,"671 West King St,",Boone,NC,5.00,28607,"$1,175",Ask for pricing,"$1,525",$700,"$2,200+","$1,125","$2,645","$2,695"
67,Nu Wesley Apartments,https://www.rentcafe.com/apartments/nc/charlotte/nu-wesley/default.aspx,"Mcquay Street,",Charlotte,NC,5.00,28208,Ask for pricing,"$1,150","$1,525",$700,"$2,200+","$1,125","$2,645","$2,695"
68,Hawthorne At Holly Springs,https://www.rentcafe.com/apartments/nc/holly-springs/hawthorne-at-holly-springs/default.aspx,"6000 Forest Village Drive,",Holly Springs,NC,5.00,27540,"$1,450+","$1,650+","$2,040+",$700,"$2,200+","$1,125","$2,645","$2,695"
69,306 McCauley,https://www.rentcafe.com/apartments/nc/chapel-hill/306-mccauley/default.aspx,"306 Mccauley,",Chapel Hill,NC,5.00,27516,"$1,450+","$1,650+","$2,040+",$700,"$2,200+","$1,125","$2,645","$2,695"
70,The Providence At Brier Creek,https://www.rentcafe.com/apartments/nc/raleigh/the-providence-at-brier-creek/default.aspx,"10100 Donerail Way,",Raleigh,NC,5.00,27617,"$1,293+","$1,793+",Ask for pricing,$700,"$2,200+","$1,125","$2,645","$2,695"
71,The Cove At Matthews,https://www.rentcafe.com/apartments/nc/matthews/the-cove-at-matthews/default.aspx,"1701 Gander Cove Lane,",Matthews,NC,5.00,28105,"$1,293+","$1,793+",Ask for pricing,$700,"$2,200+","$1,125","$2,645","$2,695"
72,MAA Reserve,https://www.rentcafe.com/apartments/nc/charlotte/maa-reserve/default.aspx,"2720 South Boulevard,",Charlotte,NC,5.00,28209,"$1,613+","$2,533+",Ask for pricing,"$1,488+","$2,200+","$1,125","$2,645","$2,695"
73,MAA Ballantyne,https://www.rentcafe.com/apartments/nc/charlotte/maa-ballantyne/default.aspx,"14205 Ballantyne Lake Road,",Charlotte,NC,5.00,28277,"$1,570+","$2,270+",Ask for pricing,"$1,488+","$2,200+","$3,020+","$2,645","$2,695"
74,1275 Mount Moriah Church Road,https://www.rentcafe.com/apartments/nc/china-grove/1275-mount-moriah-church-road/default.aspx,"1275 Mount Moriah Church Road,",China Grove,NC,5.00,28023,"$1,570+","$1,450",Ask for pricing,"$1,488+","$2,200+","$3,020+","$2,645","$2,695"
75,"Robinson Rentals & Renovations, LLC",https://www.rentcafe.com/apartments/nc/burlington/robinson-rentals-renovations-llc/default.aspx,"852 S. Main St.,",Burlington,NC,5.00,27215,Ask for pricing,$775,Ask for pricing,Ask for pricing,"$2,200+","$3,020+","$2,645","$2,695"
76,517 Kenway Street,https://www.rentcafe.com/apartments/nc/garner/517-kenway-street-0/default.aspx,"517 Kenway Street,",Garner,NC,5.00,27529,Ask for pricing,$775,"$1,700",Ask for pricing,"$2,200+","$3,020+","$2,645","$2,695"
77,Highgate Townhomes,https://www.rentcafe.com/apartments/nc/durham/highgate-townhomes/default.aspx,"100 Highgate Drive,",Durham,NC,5.00,27713,Ask for pricing,$775,"$1,700",Ask for pricing,"$2,200+","$3,020+","$2,645","$2,695"
78,Phillips Landing Apartments,https://www.rentcafe.com/apartments/nc/statesville/phillips-landing-apartments/default.aspx,"501 Phillips Lane,",Statesville,NC,5.00,28625,$915,"$1,075","$1,250",Ask for pricing,"$2,200+","$3,020+","$2,645","$2,695"
79,1301-1305-1309 Byron St,https://www.rentcafe.com/apartments/nc/winston-salem/1301-1305-1309-byron-st/default.aspx,"Byron Street,",Winston-Salem,NC,5.00,27105,$915,$550,"$1,250",Ask for pricing,"$2,200+","$3,020+","$2,645","$2,695"
80,MAA Ayrsley,https://www.rentcafe.com/apartments/nc/charlotte/maa-ayrsley/default.aspx,"9005 Lenox Pointe Drive,",Charlotte,NC,5.00,28273,"$1,258+","$1,448+","$1,803+",Ask for pricing,"$2,200+","$3,020+","$2,645","$2,695"
81,146 E Bell Street,https://www.rentcafe.com/apartments/nc/statesville/146-e-bell-street/default.aspx,"146 E Bell Street,",Statesville,NC,5.00,28677,$800+,"$1,350","$1,803+",Ask for pricing,"$2,200+","$3,020+","$2,645","$2,695"
82,Bedford Market,https://www.rentcafe.com/apartments/nc/raleigh/bedford-market/default.aspx,"1540 Dunn Road,",Raleigh,NC,5.00,27615,$800+,"$1,350","$1,803+",Ask for pricing,"$2,200+","$3,020+","$2,645","$2,695"
83,Forest Wind Apartments,https://www.rentcafe.com/apartments/nc/kernersville/forest-winds-apartments0/default.aspx,"Forest Winds Apts,",Kernersville,NC,5.00,27284,$600,"$1,350","$1,803+",Ask for pricing,"$2,200+","$3,020+","$2,645","$2,695"
84,MAA Chancellor Park,https://www.rentcafe.com/apartments/nc/charlotte/maa-chancellor-park/default.aspx,"8215 University Ridge Drive,",Charlotte,NC,5.00,28213,"$1,183+","$1,503+","$1,638+",Ask for pricing,"$2,200+","$3,020+","$2,645","$2,695"
85,The Pointe At Irving Park,https://www.rentcafe.com/apartments/nc/greensboro/the-pointe-at-irving-park-0/default.aspx,"3100 North Elm Street,",Greensboro,NC,5.00,27408,"$1,183+","$1,503+","$1,638+",Ask for pricing,"$2,200+","$3,020+","$2,645","$2,695"
86,Cinnamon Ridge,https://www.rentcafe.com/apartments/nc/greensboro/cinnamon-ridge1/default.aspx,"18 Sails Way,",Greensboro,NC,5.00,27406,$750,$850,"$1,638+",Ask for pricing,"$2,200+","$3,020+","$2,645","$2,695"
87,Reserve At Arringdon,https://www.rentcafe.com/apartments/nc/morrisville/reserve-at-arringdon/default.aspx,"5710 Arringdon Park Drive,",Morrisville,NC,5.00,27560,"$1,373+","$1,533+",Ask for pricing,Ask for pricing,"$2,200+","$3,020+","$2,645","$2,695"
88,MAA Duke Forest,https://www.rentcafe.com/apartments/nc/durham/maa-duke-forest/default.aspx,"910 Constitution Drive,",Durham,NC,5.00,27705,"$1,388+","$1,498+",Ask for pricing,Ask for pricing,"$2,200+","$3,020+","$2,645","$2,695"
89,MAA 1225,https://www.rentcafe.com/apartments/nc/charlotte/maa-1225/default.aspx,"1225 S Church St,",Charlotte,NC,5.00,28203,"$1,653+","$1,498+",Ask for pricing,"$1,598+","$2,293+","$3,020+","$2,645","$2,695"
90,850 Foxwood PLace,https://www.rentcafe.com/apartments/nc/winston-salem/850-foxwood-place/default.aspx,"850 Foxwood Place,",Winston-Salem,NC,5.00,27127,"$1,653+",$625+,Ask for pricing,"$1,598+","$2,293+","$3,020+","$2,645","$2,695"
91,MAA Legacy Park,https://www.rentcafe.com/apartments/nc/charlotte/maa-legacy-park/default.aspx,"8810 Legacy Park Drive,",Charlotte,NC,5.00,28269,"$1,130+","$1,488+",Ask for pricing,"$1,598+","$2,293+","$3,020+","$2,645","$2,695"
92,"7944 Suttonview Drive Charlotte, NC 28269",https://www.rentcafe.com/apartments/nc/charlotte/7944-suttonview-drive-charlotte-nc-28269-0/default.aspx,"7944 Suttonview Drive,",Charlotte,NC,5.00,28269,"$1,130+","$1,488+",Ask for pricing,"$1,598+","$2,293+","$3,020+","$2,845","$2,695"
93,"328 Woodsboro Place Benson, NC 27504",https://www.rentcafe.com/apartments/nc/benson/328-woodsboro-place-benson-nc-27504/default.aspx,"328 Woodsboro Place,",Benson,NC,5.00,27504,"$1,130+","$1,488+","$1,925","$1,598+","$2,293+","$3,020+","$2,845","$2,695"
94,"2611 White Fence Way High Point, NC 27265",https://www.rentcafe.com/apartments/nc/high-point/2611-white-fence-way-high-point-nc-27265/default.aspx,"2611 White Fence Way,",High Point,NC,5.00,27265,"$1,130+","$1,488+","$1,925","$1,598+","$2,293+","$3,020+","$2,845","$2,695"
95,"8409 Conner Ridge Lane Charlotte, NC 28269",https://www.rentcafe.com/apartments/nc/charlotte/8409-conner-ridge-lane-charlotte-nc-28269/default.aspx,"8409 Conner Ridge Lane,",Charlotte,NC,5.00,28269,"$1,130+","$1,488+","$1,925","$1,598+","$2,293+","$3,020+","$2,045","$2,695"
96,Neuse Town,https://www.rentcafe.com/apartments/nc/raleigh/neuse-town0/default.aspx,"8714 Neuse Town,",Raleigh,NC,5.00,27616,"$1,130+","$1,488+","$1,925","$1,598+","$2,293+","$3,020+","$2,045","$2,695"
97,"Front St, LLC",https://www.rentcafe.com/apartments/nc/burlington/front-st-llc/default.aspx,"286 E Front St.,",BURLINGTON,NC,5.00,27215,"$1,130+","$1,488+","$1,925","$1,598+","$2,293+","$3,020+","$2,045","$2,695"
98,"1204 Crabtree Drive Winston Salem, NC 27127",https://www.rentcafe.com/apartments/nc/winston-salem/1204-crabtree-drive-winston-salem-nc-27127/default.aspx,"1204 Crabtree Drive,",Winston Salem,NC,5.00,27127,"$1,130+","$1,488+","$1,895","$1,598+","$2,293+","$3,020+","$2,045","$2,695"
99,"7362 Mill Ruins Avenue Southwest Concord, NC 28025",https://www.rentcafe.com/apartments/nc/concord/7362-mill-ruins-avenue-southwest-concord-nc-28025/default.aspx,"7362 Mill Ruins Avenue Southwest,",Concord,NC,5.00,28025,"$1,130+","$1,488+","$1,895","$1,598+","$2,293+","$3,020+","$2,645","$2,695"
