,name,link,address,city,state,ratings,zipcode,Studio,1 BED,2 BEDS,3 BEDS,3+ BEDS,2+ BEDS
0,Centric Gateway,https://www.rentcafe.com/apartments/nc/charlotte/centric-gateway/default.aspx,1010 West Trade Street,Charlotte,NC,4.50,28202,Ask for pricing,"$1,596+","$2,065+",,,
1,Hawthorne At The Bend,https://www.rentcafe.com/apartments/nc/hampstead/hawthorne-at-the-bend/default.aspx,75 Siskin Circle,Hampstead,NC,4.50,28443,Ask for pricing,"$1,313+","$1,597+",Ask for pricing,,
2,29 North,https://www.rentcafe.com/apartments/nc/hickory/29-north/default.aspx,112 29Th Ave Dr NW,Hickory,NC,5.00,28601,Ask for pricing,"$1,313+","$1,597+",Ask for pricing,,
3,2216 Cotton Dr,https://www.rentcafe.com/apartments/nc/tarboro/2216-cotton-dr0/default.aspx,2216 Cotton Dr,Tarboro,NC,5.00,27886,Ask for pricing,"$1,313+","$1,597+","$1,299",,
4,Millbrook Apartments,https://www.rentcafe.com/apartments/nc/greensboro/millbrook-apartments/default.aspx,1101 E Barton St,Greensboro,NC,5.00,27407,Ask for pricing,$975,"$1,100","$1,299",,
5,Lexington On The Green,https://www.rentcafe.com/apartments/nc/raleigh/lexington-on-the-green-0/default.aspx,4803 N New Hope Rd,Raleigh,NC,3.00,27604,Ask for pricing,"$1,084+","$1,405",Ask for pricing,,
6,Midwood Drive Apartments,https://www.rentcafe.com/apartments/nc/raleigh/1806-a-d-midwood-drive/default.aspx,1806 Midwood Drive,Raleigh,NC,3.00,27604,Ask for pricing,"$1,084+","$1,545",Ask for pricing,,
7,Willow Ridge Apartments,https://www.rentcafe.com/apartments/nc/charlotte/willow-ridge-apartments/default.aspx,9200 Willow Ridge Road,Charlotte,NC,4.00,28210,Ask for pricing,"$1,290+","$1,469+",Ask for pricing,,
8,Hawthorne At Bear Creek,https://www.rentcafe.com/apartments/nc/asheville/hawthorne-at-bear-creek/default.aspx,110 Bear Creek Lane,Asheville,NC,4.00,28806,Ask for pricing,Ask for pricing,"$1,285+",Ask for pricing,"$1,427+",
9,Peppertree,https://www.rentcafe.com/apartments/nc/charlotte/peppertree-2/default.aspx,4335 Central Ave.,Charlotte,NC,4.50,28205,Ask for pricing,"$1,044+","$1,859+",Ask for pricing,"$1,427+",
10,Elizabeth Flats On 7th At Laurel,https://www.rentcafe.com/apartments/nc/charlotte/elizabeth-flats-on-7th-at-laurel/default.aspx,2220 East 7Th Street,Charlotte,NC,4.50,28204,Ask for pricing,Ask for pricing,"$1,400",Ask for pricing,"$1,427+",
11,Parkway Station Apartment Homes,https://www.rentcafe.com/apartments/nc/concord/parkway-station-apartment-homes/default.aspx,100 Samuel Adams Cir,Concord,NC,4.50,28027,Ask for pricing,"$1,155+","$1,382+","$1,665+","$1,427+",
12,Cumberland Towers,https://www.rentcafe.com/apartments/nc/fayetteville/cumberland-towers/default.aspx,2580 Cumberland Creek Dr,Fayetteville,NC,4.50,28306,Ask for pricing,$899,"$1,099","$1,399","$1,427+",
13,MAA LoSo,https://www.rentcafe.com/apartments/nc/charlotte/maa-loso/default.aspx,4015 Craft Street,Charlotte,NC,4.50,28217,"$1,778+","$1,863+","$1,099","$1,399","$1,427+","$2,848+"
14,Museum Tower,https://www.rentcafe.com/apartments/nc/charlotte/museum-tower/default.aspx,525 South Church St,Charlotte,NC,4.00,28202,"$1,778+","$2,042+","$2,972+","$1,399","$1,427+","$2,848+"
15,The Encore SouthPark,https://www.rentcafe.com/apartments/nc/charlotte/the-encore-southpark/default.aspx,6205 Carnegie Boulevard,Charlotte,NC,4.50,28211,"$1,778+","$1,745+","$2,830+","$4,270+","$1,427+","$2,848+"
16,Capital Creek At Heritage,https://www.rentcafe.com/apartments/nc/wake-forest/capital-creek-at-heritage0/default.aspx,1910 Capital Creek Dr,Wake Forest,NC,4.50,27587,"$1,778+","$1,555+","$1,800+","$2,110+","$1,427+","$2,848+"
17,Crescent Oaks,https://www.rentcafe.com/apartments/nc/graham/crescent-oaks0/default.aspx,130 West Crescent Square Drive,Graham,NC,4.50,27253,"$1,778+",Ask for pricing,"$1,325","$2,110+","$1,427+","$2,848+"
18,Crosswinds Apartments,https://www.rentcafe.com/apartments/nc/wilmington/crosswinds-apartments-3/default.aspx,1108 Saint Andrews Drive,Wilmington,NC,4.50,28412,"$1,778+","$1,065+","$1,215+","$1,470","$1,427+","$2,848+"
19,The Villages Of Chapel Hill,https://www.rentcafe.com/apartments/nc/carrboro/villages-of-chapel-hill0/default.aspx,500 Smith Level Rd,Carrboro,NC,3.00,27510,$969+,"$1,161+","$1,215+","$1,470","$1,427+","$1,434+"
20,The Residences At Wakefield,https://www.rentcafe.com/apartments/nc/raleigh/bell-wakefield0/default.aspx,12201 Oakwood View Drive,Raleigh,NC,4.00,27614,$969+,"$1,269+","$1,521+","$1,852+","$1,427+","$1,434+"
21,Cambridge Apartments,https://www.rentcafe.com/apartments/nc/greensboro/cambridge-apartments2/default.aspx,3300 N Elm Street,Greensboro,NC,4.00,27405,$969+,$799+,$850,"$1,852+","$1,427+","$1,434+"
22,8 West,https://www.rentcafe.com/apartments/nc/greensboro/8-west/default.aspx,6004 Grandover Village Road,Greensboro,NC,4.00,27407,$969+,"$1,550+","$1,825+",Ask for pricing,"$1,427+","$1,434+"
23,Comet West New Bern,https://www.rentcafe.com/apartments/nc/new-bern/comet-west-new-bern/default.aspx,1000 Comet Drive,New Bern,NC,4.50,28560,$969+,"$1,292+","$1,605+",Ask for pricing,"$1,427+","$1,434+"
24,Eagle Landing,https://www.rentcafe.com/apartments/nc/pinehurst/eagle-landing0/default.aspx,1000 Fazio Dr.,Pinehurst,NC,4.50,28374,$969+,"$1,545","$2,040","$2,305","$1,427+","$1,434+"
25,Catalyst Charlotte,https://www.rentcafe.com/apartments/nc/charlotte/catalyst-charlotte/default.aspx,255 W Martin Luther King Blvd,Charlotte,NC,4.50,28202,$969+,"$1,725+","$2,608","$2,305","$1,427+","$1,434+"
26,MeadowBrook Apartments,https://www.rentcafe.com/apartments/nc/fayetteville/meadowbrook-apartments1/default.aspx,6707 Water Trail Drive,Fayetteville,NC,4.00,28311,$969+,$725,Ask for pricing,Ask for pricing,"$1,427+","$1,434+"
27,Westchester,https://www.rentcafe.com/apartments/nc/garner/westchester-4/default.aspx,905 7Th Ave,Garner,NC,4.00,27713,$969+,"$1,115","$1,260",Ask for pricing,"$1,427+","$1,434+"
28,ARIUM Lake Johnson,https://www.rentcafe.com/apartments/nc/raleigh/arium-lake-johnson/default.aspx,3201 Walnut Creek Pkwy,Raleigh,NC,4.00,27606,$969+,"$1,220+","$1,280+","$1,570+","$1,427+","$1,434+"
29,Cumberland Cove,https://www.rentcafe.com/apartments/nc/raleigh/cumberland-cove/default.aspx,3110 Hidden Pond Dr,Raleigh,NC,4.00,27613,$969+,"$1,346+","$1,471+","$1,904+","$1,427+","$1,434+"
30,Residences At Brookline,https://www.rentcafe.com/apartments/nc/charlotte/residence-at-brookline/default.aspx,8816 Aspinwall Drive,Charlotte,NC,4.00,28216,$969+,"$1,325+","$1,641+","$1,815+","$1,427+","$1,434+"
31,Midtown Park Townhomes,https://www.rentcafe.com/apartments/nc/raleigh/midtown-park-townhomes/default.aspx,5499 Tralee Place,Raleigh,NC,4.00,27609,$969+,"$1,325+","$1,549","$1,815+","$1,427+","$1,434+"
32,ARIUM Weston,https://www.rentcafe.com/apartments/nc/morrisville/arium-weston/default.aspx,1000 Henrico Ln,Morrisville,NC,3.50,27560,$969+,"$1,210+","$1,470+","$1,675+","$1,427+","$1,434+"
33,Lodge At Southpoint,https://www.rentcafe.com/apartments/nc/durham/lodge-at-southpoint/default.aspx,1300 Knoll Circle,Durham,NC,4.50,27713,$969+,"$1,250+","$1,757+",Ask for pricing,"$1,427+","$1,434+"
34,The Metropolitan,https://www.rentcafe.com/apartments/nc/raleigh/the-metropolitan3/default.aspx,314 West Jones Street,Raleigh,NC,5.00,27603,"$1,480+","$1,820+","$2,115+",Ask for pricing,"$1,427+","$1,434+"
35,The Chase,https://www.rentcafe.com/apartments/nc/burlington/the-chase0/default.aspx,3508 Garden Road,Burlington,NC,4.00,27215,"$1,480+",Ask for pricing,"$1,390","$1,999","$1,427+","$1,434+"
36,Park And Market,https://www.rentcafe.com/apartments/nc/raleigh/park-market/default.aspx,"141 Park At N Hills St, Suite 110",Raleigh,NC,3.50,27609,"$1,487+","$1,781+","$1,959+","$1,999","$1,427+","$1,434+"
37,Hudson 5401 Apartments I,https://www.rentcafe.com/apartments/nc/raleigh/hudson5401apartments/default.aspx,7760 Midtown Market Ave Bldg C,Raleigh,NC,4.00,27616,"$1,487+","$1,505+","$2,040+","$1,999","$1,427+","$1,434+"
38,Yester Oaks Apartments,https://www.rentcafe.com/apartments/nc/greensboro/yester-oaks-apartments/default.aspx,100 Yester Oaks Way E,Greensboro,NC,4.50,27455,"$1,487+","$1,505+",Ask for pricing,"$1,294","$1,427+","$1,434+"
39,W Flats Apartments,https://www.rentcafe.com/apartments/nc/charlotte/w-flats/default.aspx,7200 Wallace Road,Charlotte,NC,5.00,28212,"$1,487+",$940+,"$1,244+","$1,294","$1,427+","$1,434+"
40,Evolve Surf City Apartments,https://www.rentcafe.com/apartments/nc/hampstead/evolve-surf-city-apartments/default.aspx,206 Collegiate Drive,Hampstead,NC,5.00,28443,"$1,487+",$940+,"$1,244+","$1,294","$1,427+","$1,434+"
41,Hawthorne At The Greene,https://www.rentcafe.com/apartments/nc/charlotte/hawthorne-at-the-greene/default.aspx,13625 Haven Ridge Lane,Charlotte,NC,4.50,28215,"$1,487+",Ask for pricing,"$1,550+","$1,801+","$1,427+","$1,434+"
42,The Villages At Olde Towne,https://www.rentcafe.com/apartments/nc/raleigh/villages-at-olde-towne/default.aspx,2301 Ostracod Lane,Raleigh,NC,4.00,27610,"$1,324","$1,474","$1,550+","$1,801+","$1,427+","$1,849+"
43,The Fairways At Birkdale Apartment Homes,https://www.rentcafe.com/apartments/nc/huntersville/fairways-at-birkdale-apartments/default.aspx,16501 Stonemason Dr,Huntersville,NC,4.50,28078,"$1,324","$1,371+","$1,671+","$2,112+","$1,427+","$1,849+"
44,Waterford Apartment II,https://www.rentcafe.com/apartments/nc/greenville/waterford-apartment-ii/default.aspx,2792 Statonsburg Road,Greenville,NC,4.50,27834,"$1,324","$1,371+","$1,671+","$2,112+","$1,427+","$1,849+"
45,The Lofts At Reynolds Village,https://www.rentcafe.com/apartments/nc/asheville/the-lofts-at-reynolds-village/default.aspx,61 N Merrimon Ave Suite 101,Asheville,NC,4.50,28804,"$1,324",Ask for pricing,"$1,630",Ask for pricing,"$1,427+","$1,849+"
46,Enclave At Rivergate,https://www.rentcafe.com/apartments/nc/charlotte/enclave-at-rivergate/default.aspx,12400 Toscana Way,Charlotte,NC,4.50,28273,"$1,324","$1,361+","$1,742+","$1,915","$1,427+","$1,849+"
47,Elm Street Commons,https://www.rentcafe.com/apartments/nc/greensboro/elm-street-commons/default.aspx,500 Spicewood,Greensboro,NC,4.50,27455,"$1,324","$1,361+","$1,199","$1,915","$1,427+","$1,849+"
48,Montecito,https://www.rentcafe.com/apartments/nc/raleigh/montecito-1/default.aspx,3800-2 Colby Drive,Raleigh,NC,4.50,27609,"$1,324",$980,"$1,235","$1,915","$1,427+","$1,849+"
49,Drawbridge Creek,https://www.rentcafe.com/apartments/nc/greensboro/landmark-at-battleground-park/default.aspx,3520 Drawbridge Pkwy,Greensboro,NC,4.50,27410,"$1,324","$1,092+","$1,159+",Ask for pricing,"$1,427+","$1,849+"
