,name,link,address,city,state,ratings,zipcode,1 BED,2 BEDS,3 BEDS,Studio,2+ BEDS
0,Hawthorne At Mills Gap,https://www.rentcafe.com/apartments/nc/asheville/hawthorne-at-mills-gap/default.aspx,60 Mills Gap Road,Asheville,NC,5.00,28803,"$1,679+","$2,057",Ask for pricing,,
1,The Landing Apartment Homes,https://www.rentcafe.com/apartments/nc/fayetteville/the-landing-apartments2/default.aspx,581 Abbotts Landing Drive,Fayetteville,NC,4.50,28314,"$1,030+",Ask for pricing,Ask for pricing,,
2,507 E Martin St,https://www.rentcafe.com/apartments/nc/raleigh/507-e-martin-st/default.aspx,507 E Martin St,Raleigh,NC,4.00,27601,"$1,030+",Ask for pricing,Ask for pricing,,
3,ARIUM Trailwood,https://www.rentcafe.com/apartments/nc/raleigh/arium-trailwood/default.aspx,3004 Dorner Cir,Raleigh,NC,4.00,27606,"$1,230+","$1,510+",Ask for pricing,,
4,Windsor Addison Park,https://www.rentcafe.com/apartments/nc/charlotte/addison-park0/default.aspx,6225 Hackberry Creek Trail,Charlotte,NC,3.00,28269,"$1,300+","$1,442+","$1,742+",,
5,Loray Mill Lofts,https://www.rentcafe.com/apartments/nc/gastonia/loray-mill-lofts0/default.aspx,300 S. Firestone St. #200,Gastonia,NC,3.50,28052,Ask for pricing,"$1,505","$1,979",,
6,Liberty Pointe Phase 2,https://www.rentcafe.com/apartments/nc/midway-park/liberty-pointe-phase-2/default.aspx,1000 Yorktown Lane,Midway Park,NC,3.50,28544,Ask for pricing,"$1,505","$1,979",,
7,The Village At Brierfield Apartment Homes,https://www.rentcafe.com/apartments/nc/charlotte/village-at-brierfield-apartment-homes/default.aspx,11609 Windy Creek Dr,Charlotte,NC,3.00,28262,"$1,130+","$1,275+",Ask for pricing,,
8,Mooresville Station,https://www.rentcafe.com/apartments/nc/mooresville/mooresville-station0/default.aspx,161 Lansing Cir,Mooresville,NC,3.00,28115,$984+,"$1,275+",Ask for pricing,$803+,"$1,136+"
9,Bexley At Brier Creek,https://www.rentcafe.com/apartments/nc/raleigh/bexley-at-brier-creek/default.aspx,8230 Stonebrook Terrace,Raleigh,NC,4.00,27617,"$1,419+","$1,699+","$1,999+",$803+,"$1,136+"
10,The Residences At Chadwick Square Court,https://www.rentcafe.com/apartments/nc/hendersonville/the-residences-at-chadwick-square-court/default.aspx,300 Chadwick Square Court,Hendersonville,NC,4.00,28739,"$1,419+","$1,699+","$1,999+",$803+,"$1,136+"
11,Granville Oaks Apartment Homes,https://www.rentcafe.com/apartments/nc/creedmoor/granville-oaks-apt-homes/default.aspx,2162 Mill Stream Circle,Creedmoor,NC,4.00,27522,Ask for pricing,"$1,199","$1,419",$803+,"$1,136+"
12,501 Estates,https://www.rentcafe.com/apartments/nc/durham/501-estates/default.aspx,240 Ivy Meadow Lane,Durham,NC,3.50,27707,"$1,470+","$1,767+","$1,816+",$803+,"$1,136+"
13,The Park At Steele Creek,https://www.rentcafe.com/apartments/nc/charlotte/the-park-at-steele-creek/default.aspx,13301 Crescent Springs Drive,Charlotte,NC,3.50,28273,"$1,220+","$1,441+",Ask for pricing,$803+,"$1,136+"
14,300 Optimist Park,https://www.rentcafe.com/apartments/nc/charlotte/300-optimist-park/default.aspx,300 Parkwood Ave.,Charlotte,NC,3.50,28206,"$1,220+","$1,441+",Ask for pricing,$803+,"$1,136+"
15,Bexley Village At Concord Mills,https://www.rentcafe.com/apartments/nc/concord/bexley-village-at-concord-mills/default.aspx,5550 Bexley Way NW,Concord,NC,3.50,28027,"$1,384","$1,551+","$1,799+",$803+,"$1,136+"
16,Woodbrook Apartment Homes,https://www.rentcafe.com/apartments/nc/monroe/woodbrook-apartment-homes/default.aspx,2525 Woodbook Ln,Monroe,NC,4.50,28110,Ask for pricing,"$1,551+","$1,799+","$1,120+","$1,385+"
17,Stonesthrow By ARIUM,https://www.rentcafe.com/apartments/nc/greensboro/stonesthrow-apartments-by-arium/default.aspx,3501 Farmington Dr,Greensboro,NC,4.50,27407,$855+,$880+,"$1,205+","$1,120+","$1,385+"
18,Liberty Pointe At Piney Green Apts,https://www.rentcafe.com/apartments/nc/midway-park/liberty-pointe-at-piney-green-apts/default.aspx,1000 Yorktown Lane,Midway Park,NC,4.50,28544,$855+,$880+,"$1,205+","$1,120+","$1,385+"
19,Jamestown Commons,https://www.rentcafe.com/apartments/nc/fayetteville/jamestown-commons/default.aspx,1429 Bozeman Loop,Fayetteville,NC,4.00,28303,"$1,170","$1,290","$1,450","$1,120+","$1,385+"
20,Haven At Research Triangle Park,https://www.rentcafe.com/apartments/nc/durham/haven-at-research-triangle-park-0/default.aspx,3001 New Haven Drive,Durham,NC,4.00,27703,"$1,199+","$1,679+","$1,679+","$1,120+","$1,385+"
21,The Landing At West End,https://www.rentcafe.com/apartments/nc/durham/the-landing-at-west-end/default.aspx,2003 House Ave,Durham,NC,4.00,27707,Ask for pricing,"$1,200",Ask for pricing,"$1,120+","$1,385+"
22,Beachwood Park Apartments And Townhomes,https://www.rentcafe.com/apartments/nc/raleigh/beachwood-park-apartments-and-townhomes/default.aspx,1001 Beach Pointe Ave,Raleigh,NC,4.00,27604,Ask for pricing,"$1,450+","$1,710+","$1,120+","$1,385+"
23,Willow Woods,https://www.rentcafe.com/apartments/nc/high-point/willow-woods/default.aspx,3019 Ingleside Dr,High Point,NC,5.00,27265,"$1,155+","$1,055+","$1,355+","$1,120+","$1,385+"
24,Tindall Park At SouthPark,https://www.rentcafe.com/apartments/nc/charlotte/tindall-park-at-south-park/default.aspx,6023 Tindall Park Drive,Charlotte,NC,5.00,28210,"$1,155+","$3,150","$3,260","$1,120+","$1,385+"
25,525 East,https://www.rentcafe.com/apartments/nc/charlotte/525-east/default.aspx,525 East Boulevard,Charlotte,NC,4.00,28203,"$1,155+","$3,150","$3,260","$1,120+","$1,385+"
26,Encore At Heritage,https://www.rentcafe.com/apartments/nc/wake-forest/encore-at-heritage/default.aspx,1891 S Franklin Street,Wake Forest,NC,4.00,27587,"$1,245+","$1,565+","$2,260+","$1,120+","$1,385+"
27,Comet Westgate,https://www.rentcafe.com/apartments/nc/leland/comet-westgate/default.aspx,5090 Tradeway Drive,Leland,NC,4.00,28451,"$1,335+","$1,525+","$2,260+","$1,120+","$1,385+"
28,Summit Village Apartments,https://www.rentcafe.com/apartments/nc/greensboro/summit-village-apartments0/default.aspx,199 Wind Rd.,Greensboro,NC,4.00,27405,$890+,"$1,004+","$2,260+","$1,120+","$1,385+"
29,The Junction At Antiquity,https://www.rentcafe.com/apartments/nc/cornelius/junction-at-antiquity-0/default.aspx,22415 Market Street,Cornelius,NC,4.50,28031,"$1,568+","$1,728+","$2,008+","$1,120+","$1,385+"
30,The Gibson,https://www.rentcafe.com/apartments/nc/charlotte/the-gibson0/default.aspx,1000 Central Ave,Charlotte,NC,4.50,28204,"$1,622","$2,323","$2,008+","$1,120+","$1,385+"
31,Reserve At Bridford,https://www.rentcafe.com/apartments/nc/greensboro/1402-bridford-pkwy-greensboro-nc-27407/default.aspx,1402 Bridford Pkwy,Greensboro,NC,5.00,27407,"$1,146+","$1,750+","$1,871+","$1,120+","$1,385+"
32,600 Station Square,https://www.rentcafe.com/apartments/nc/greensboro/600-station-square/default.aspx,600 Coapman Street,Greensboro,NC,4.50,27407,"$1,199+","$1,650+","$1,871+","$1,120+","$1,385+"
33,"1329 Waybridge Lane Winston Salem, NC 27103",https://www.rentcafe.com/apartments/nc/winston-salem/1329-waybridge-lane-winston-salem-nc-27103/default.aspx,1329 Waybridge Lane,Winston-Salem,NC,4.50,27103,"$1,199+","$1,650+","$1,350","$1,120+","$1,385+"
34,Buckhead Apartments,https://www.rentcafe.com/apartments/nc/fayetteville/buckhead-apartments/default.aspx,4428 Kinkead Court,Fayetteville,NC,4.50,28314,"$1,020+","$1,105","$1,350","$1,120+","$1,385+"
35,Link Apartments® Montford,https://www.rentcafe.com/apartments/nc/charlotte/link-apartments-174-montford/default.aspx,1615 Mockingbird Lane,Charlotte,NC,4.50,28209,"$1,444+","$1,886+","$1,350","$1,360+","$1,385+"
36,616 At The Village,https://www.rentcafe.com/apartments/nc/raleigh/616-at-the-village-0/default.aspx,616 Oberlin Road,Raleigh,NC,4.50,27605,"$1,750+","$1,886+","$1,350","$1,425+","$2,535+"
37,The Summit On 401,https://www.rentcafe.com/apartments/nc/fayetteville/the-summit-on-401/default.aspx,3325 Oak Forest Drive,Fayetteville,NC,4.00,28304,"$1,135+","$1,260+","$1,480+","$1,425+","$2,535+"
38,The Cottages At Knightdale Station,https://www.rentcafe.com/apartments/nc/knightdale/the-cottages-at-knightdale-station/default.aspx,1100 Cannonball Run,Knightdale,NC,4.50,27545,"$1,509","$1,750+",Ask for pricing,"$1,425+","$2,535+"
39,Sycamore At Tyvola,https://www.rentcafe.com/apartments/nc/charlotte/sycamore-at-tyvola/default.aspx,707 Sycamore Centre Dr,Charlotte,NC,5.00,28217,"$1,709+","$1,865+",Ask for pricing,"$1,425+","$2,535+"
40,Summerlin Ridge Apartments,https://www.rentcafe.com/apartments/nc/winston-salem/summerlin-ridge-apartments/default.aspx,2425 Summerlin Ridge Dr,Winston-Salem,NC,4.50,27103,"$1,394","$1,444",Ask for pricing,"$1,425+","$2,535+"
41,Bexley Park,https://www.rentcafe.com/apartments/nc/morrisville/bexley-park/default.aspx,100 Summer Sky Drive,Morrisville,NC,4.00,27560,"$1,360+","$1,489+","$1,749+","$1,425+","$2,535+"
42,Heritage Apartments,https://www.rentcafe.com/apartments/nc/hillsborough/heritage-heritage-apartments/default.aspx,405 Thomas Burke Drive,Hillsborough,NC,4.00,27278,"$1,350","$1,425",Ask for pricing,"$1,425+","$2,535+"
43,Brentmoor Apartments,https://www.rentcafe.com/apartments/nc/raleigh/brentmoo-the-brentmoor-apartments/default.aspx,2080 Brentmoor Drive,Raleigh,NC,4.00,27604,"$1,315+","$1,500+",Ask for pricing,"$1,425+","$2,535+"
44,Laurel Springs,https://www.rentcafe.com/apartments/nc/raleigh/laurel-springs/default.aspx,500 Bridle Ridge Ln.,Raleigh,NC,5.00,27609,"$1,472+","$1,517+",Ask for pricing,"$1,425+","$2,535+"
45,644 E Ketchie Street,https://www.rentcafe.com/apartments/nc/china-grove/644-e-ketchie-street/default.aspx,644 E Ketchie Street,China Grove,NC,5.00,28023,"$1,472+","$1,517+","$1,449","$1,425+","$2,535+"
46,Johnston Creek Crossing,https://www.rentcafe.com/apartments/nc/charlotte/johnston-creek-crossing/default.aspx,10310 Cedar Trail Ln.,Charlotte,NC,5.00,28210,"$1,220+","$1,705+","$1,872+","$1,425+","$2,535+"
47,Foster On The Park,https://www.rentcafe.com/apartments/nc/durham/foster-on-the-park-0/default.aspx,545 Foster Street,Durham,NC,4.50,27701,"$1,341+","$1,705+","$1,872+","$1,544+","$2,386+"
48,Bexley At Springs Farm,https://www.rentcafe.com/apartments/nc/charlotte/bexley-at-springs-farm/default.aspx,3300 Open Field Lane,Charlotte,NC,3.50,28226,"$1,525+","$1,920+",Ask for pricing,"$1,544+","$2,386+"
49,Deerbrook Apartments,https://www.rentcafe.com/apartments/nc/wilmington/deerbrook-apartments/default.aspx,703 Grathwol Dr.,Wilmington,NC,4.50,28405,Ask for pricing,"$1,263+","$1,459+","$1,544+","$2,386+"
50,Hawthorne At Mills Gap,https://www.rentcafe.com/apartments/nc/asheville/hawthorne-at-mills-gap/default.aspx,"60 Mills Gap Road,",Asheville,NC,4.50,28803,"$1,679+","$2,057",Ask for pricing,"$1,544+","$2,386+"
51,The Landing Apartment Homes,https://www.rentcafe.com/apartments/nc/fayetteville/the-landing-apartments2/default.aspx,"581 Abbotts Landing Drive,",Fayetteville,NC,4.50,28314,"$1,030+",Ask for pricing,Ask for pricing,"$1,544+","$2,386+"
52,507 E Martin St,https://www.rentcafe.com/apartments/nc/raleigh/507-e-martin-st/default.aspx,"507 E Martin St,",Raleigh,NC,4.50,27601,"$1,030+",Ask for pricing,Ask for pricing,"$1,544+","$2,386+"
53,ARIUM Trailwood,https://www.rentcafe.com/apartments/nc/raleigh/arium-trailwood/default.aspx,"3004 Dorner Cir,",Raleigh,NC,4.50,27606,"$1,230+","$1,510+",Ask for pricing,"$1,544+","$2,386+"
54,Windsor Addison Park,https://www.rentcafe.com/apartments/nc/charlotte/addison-park0/default.aspx,"6225 Hackberry Creek Trail,",Charlotte,NC,4.50,28269,"$1,300+","$1,442+","$1,742+","$1,544+","$2,386+"
55,Loray Mill Lofts,https://www.rentcafe.com/apartments/nc/gastonia/loray-mill-lofts0/default.aspx,"300 S. Firestone St. #200,",Gastonia,NC,4.50,28052,Ask for pricing,"$1,505","$1,979","$1,544+","$2,386+"
56,Liberty Pointe Phase 2,https://www.rentcafe.com/apartments/nc/midway-park/liberty-pointe-phase-2/default.aspx,"1000 Yorktown Lane,",Midway Park,NC,4.50,28544,Ask for pricing,"$1,505","$1,979","$1,544+","$2,386+"
57,The Village At Brierfield Apartment Homes,https://www.rentcafe.com/apartments/nc/charlotte/village-at-brierfield-apartment-homes/default.aspx,"11609 Windy Creek Dr,",Charlotte,NC,4.50,28262,"$1,130+","$1,275+",Ask for pricing,"$1,544+","$2,386+"
58,Mooresville Station,https://www.rentcafe.com/apartments/nc/mooresville/mooresville-station0/default.aspx,"161 Lansing Cir,",Mooresville,NC,4.50,28115,$984+,"$1,275+",Ask for pricing,$803+,"$1,136+"
59,Bexley At Brier Creek,https://www.rentcafe.com/apartments/nc/raleigh/bexley-at-brier-creek/default.aspx,"8230 Stonebrook Terrace,",Raleigh,NC,4.50,27617,"$1,419+","$1,699+","$1,999+",$803+,"$1,136+"
60,The Residences At Chadwick Square Court,https://www.rentcafe.com/apartments/nc/hendersonville/the-residences-at-chadwick-square-court/default.aspx,"300 Chadwick Square Court,",Hendersonville,NC,4.50,28739,"$1,419+","$1,699+","$1,999+",$803+,"$1,136+"
61,Granville Oaks Apartment Homes,https://www.rentcafe.com/apartments/nc/creedmoor/granville-oaks-apt-homes/default.aspx,"2162 Mill Stream Circle,",Creedmoor,NC,4.50,27522,Ask for pricing,"$1,199","$1,419",$803+,"$1,136+"
62,501 Estates,https://www.rentcafe.com/apartments/nc/durham/501-estates/default.aspx,"240 Ivy Meadow Lane,",Durham,NC,4.50,27707,"$1,470+","$1,767+","$1,816+",$803+,"$1,136+"
63,The Park At Steele Creek,https://www.rentcafe.com/apartments/nc/charlotte/the-park-at-steele-creek/default.aspx,"13301 Crescent Springs Drive,",Charlotte,NC,4.50,28273,"$1,220+","$1,441+",Ask for pricing,$803+,"$1,136+"
64,300 Optimist Park,https://www.rentcafe.com/apartments/nc/charlotte/300-optimist-park/default.aspx,"300 Parkwood Ave.,",Charlotte,NC,4.50,28206,"$1,220+","$1,441+",Ask for pricing,$803+,"$1,136+"
65,Bexley Village At Concord Mills,https://www.rentcafe.com/apartments/nc/concord/bexley-village-at-concord-mills/default.aspx,"5550 Bexley Way NW,",Concord,NC,4.50,28027,"$1,384","$1,551+","$1,799+",$803+,"$1,136+"
66,Woodbrook Apartment Homes,https://www.rentcafe.com/apartments/nc/monroe/woodbrook-apartment-homes/default.aspx,"2525 Woodbook Ln,",Monroe,NC,4.50,28110,Ask for pricing,"$1,551+","$1,799+","$1,120+","$1,385+"
67,Stonesthrow By ARIUM,https://www.rentcafe.com/apartments/nc/greensboro/stonesthrow-apartments-by-arium/default.aspx,"3501 Farmington Dr,",Greensboro,NC,4.50,27407,$855+,$880+,"$1,205+","$1,120+","$1,385+"
68,Liberty Pointe At Piney Green Apts,https://www.rentcafe.com/apartments/nc/midway-park/liberty-pointe-at-piney-green-apts/default.aspx,"1000 Yorktown Lane,",Midway Park,NC,4.50,28544,$855+,$880+,"$1,205+","$1,120+","$1,385+"
69,Jamestown Commons,https://www.rentcafe.com/apartments/nc/fayetteville/jamestown-commons/default.aspx,"1429 Bozeman Loop,",Fayetteville,NC,4.50,28303,"$1,170","$1,290","$1,450","$1,120+","$1,385+"
70,Haven At Research Triangle Park,https://www.rentcafe.com/apartments/nc/durham/haven-at-research-triangle-park-0/default.aspx,"3001 New Haven Drive,",Durham,NC,4.50,27703,"$1,199+","$1,679+","$1,679+","$1,120+","$1,385+"
71,The Landing At West End,https://www.rentcafe.com/apartments/nc/durham/the-landing-at-west-end/default.aspx,"2003 House Ave,",Durham,NC,4.50,27707,Ask for pricing,"$1,200",Ask for pricing,"$1,120+","$1,385+"
72,Beachwood Park Apartments And Townhomes,https://www.rentcafe.com/apartments/nc/raleigh/beachwood-park-apartments-and-townhomes/default.aspx,"1001 Beach Pointe Ave,",Raleigh,NC,4.50,27604,Ask for pricing,"$1,450+","$1,710+","$1,120+","$1,385+"
73,Willow Woods,https://www.rentcafe.com/apartments/nc/high-point/willow-woods/default.aspx,"3019 Ingleside Dr,",High Point,NC,4.50,27265,"$1,155+","$1,055+","$1,355+","$1,120+","$1,385+"
74,Tindall Park At SouthPark,https://www.rentcafe.com/apartments/nc/charlotte/tindall-park-at-south-park/default.aspx,"6023 Tindall Park Drive,",Charlotte,NC,4.50,28210,"$1,155+","$3,150","$3,260","$1,120+","$1,385+"
75,525 East,https://www.rentcafe.com/apartments/nc/charlotte/525-east/default.aspx,"525 East Boulevard,",Charlotte,NC,4.50,28203,"$1,155+","$3,150","$3,260","$1,120+","$1,385+"
76,Encore At Heritage,https://www.rentcafe.com/apartments/nc/wake-forest/encore-at-heritage/default.aspx,"1891 S Franklin Street,",Wake Forest,NC,4.50,27587,"$1,245+","$1,565+","$2,260+","$1,120+","$1,385+"
77,Comet Westgate,https://www.rentcafe.com/apartments/nc/leland/comet-westgate/default.aspx,"5090 Tradeway Drive,",Leland,NC,4.50,28451,"$1,335+","$1,525+","$2,260+","$1,120+","$1,385+"
78,Summit Village Apartments,https://www.rentcafe.com/apartments/nc/greensboro/summit-village-apartments0/default.aspx,"199 Wind Rd.,",Greensboro,NC,4.50,27405,$890+,"$1,004+","$2,260+","$1,120+","$1,385+"
79,The Junction At Antiquity,https://www.rentcafe.com/apartments/nc/cornelius/junction-at-antiquity-0/default.aspx,"22415 Market Street,",Cornelius,NC,4.50,28031,"$1,568+","$1,728+","$2,008+","$1,120+","$1,385+"
80,The Gibson,https://www.rentcafe.com/apartments/nc/charlotte/the-gibson0/default.aspx,"1000 Central Ave,",Charlotte,NC,4.50,28204,"$1,622","$2,323","$2,008+","$1,120+","$1,385+"
81,Reserve At Bridford,https://www.rentcafe.com/apartments/nc/greensboro/1402-bridford-pkwy-greensboro-nc-27407/default.aspx,"1402 Bridford Pkwy,",Greensboro,NC,4.50,27407,"$1,146+","$1,750+","$1,871+","$1,120+","$1,385+"
82,600 Station Square,https://www.rentcafe.com/apartments/nc/greensboro/600-station-square/default.aspx,"600 Coapman Street,",Greensboro,NC,4.50,27407,"$1,199+","$1,650+","$1,871+","$1,120+","$1,385+"
83,"1329 Waybridge Lane Winston Salem, NC 27103",https://www.rentcafe.com/apartments/nc/winston-salem/1329-waybridge-lane-winston-salem-nc-27103/default.aspx,"1329 Waybridge Lane,",Winston-Salem,NC,4.50,27103,"$1,199+","$1,650+","$1,350","$1,120+","$1,385+"
84,Buckhead Apartments,https://www.rentcafe.com/apartments/nc/fayetteville/buckhead-apartments/default.aspx,"4428 Kinkead Court,",Fayetteville,NC,4.50,28314,"$1,020+","$1,105","$1,350","$1,120+","$1,385+"
85,Link Apartments® Montford,https://www.rentcafe.com/apartments/nc/charlotte/link-apartments-174-montford/default.aspx,"1615 Mockingbird Lane,",Charlotte,NC,4.50,28209,"$1,444+","$1,886+","$1,350","$1,360+","$1,385+"
86,616 At The Village,https://www.rentcafe.com/apartments/nc/raleigh/616-at-the-village-0/default.aspx,"616 Oberlin Road,",Raleigh,NC,4.50,27605,"$1,750+","$1,886+","$1,350","$1,425+","$2,535+"
87,The Summit On 401,https://www.rentcafe.com/apartments/nc/fayetteville/the-summit-on-401/default.aspx,"3325 Oak Forest Drive,",Fayetteville,NC,4.50,28304,"$1,135+","$1,260+","$1,480+","$1,425+","$2,535+"
88,The Cottages At Knightdale Station,https://www.rentcafe.com/apartments/nc/knightdale/the-cottages-at-knightdale-station/default.aspx,"1100 Cannonball Run,",Knightdale,NC,4.50,27545,"$1,509","$1,750+",Ask for pricing,"$1,425+","$2,535+"
89,Sycamore At Tyvola,https://www.rentcafe.com/apartments/nc/charlotte/sycamore-at-tyvola/default.aspx,"707 Sycamore Centre Dr,",Charlotte,NC,4.50,28217,"$1,709+","$1,865+",Ask for pricing,"$1,425+","$2,535+"
90,Summerlin Ridge Apartments,https://www.rentcafe.com/apartments/nc/winston-salem/summerlin-ridge-apartments/default.aspx,"2425 Summerlin Ridge Dr,",Winston-Salem,NC,4.50,27103,"$1,394","$1,444",Ask for pricing,"$1,425+","$2,535+"
91,Bexley Park,https://www.rentcafe.com/apartments/nc/morrisville/bexley-park/default.aspx,"100 Summer Sky Drive,",Morrisville,NC,4.50,27560,"$1,360+","$1,489+","$1,749+","$1,425+","$2,535+"
92,Heritage Apartments,https://www.rentcafe.com/apartments/nc/hillsborough/heritage-heritage-apartments/default.aspx,"405 Thomas Burke Drive,",Hillsborough,NC,4.50,27278,"$1,350","$1,425",Ask for pricing,"$1,425+","$2,535+"
93,Brentmoor Apartments,https://www.rentcafe.com/apartments/nc/raleigh/brentmoo-the-brentmoor-apartments/default.aspx,"2080 Brentmoor Drive,",Raleigh,NC,4.50,27604,"$1,315+","$1,500+",Ask for pricing,"$1,425+","$2,535+"
94,Laurel Springs,https://www.rentcafe.com/apartments/nc/raleigh/laurel-springs/default.aspx,"500 Bridle Ridge Ln.,",Raleigh,NC,4.50,27609,"$1,472+","$1,517+",Ask for pricing,"$1,425+","$2,535+"
95,644 E Ketchie Street,https://www.rentcafe.com/apartments/nc/china-grove/644-e-ketchie-street/default.aspx,"644 E Ketchie Street,",China Grove,NC,4.50,28023,"$1,472+","$1,517+","$1,449","$1,425+","$2,535+"
96,Johnston Creek Crossing,https://www.rentcafe.com/apartments/nc/charlotte/johnston-creek-crossing/default.aspx,"10310 Cedar Trail Ln.,",Charlotte,NC,4.50,28210,"$1,220+","$1,705+","$1,872+","$1,425+","$2,535+"
97,Foster On The Park,https://www.rentcafe.com/apartments/nc/durham/foster-on-the-park-0/default.aspx,"545 Foster Street,",Durham,NC,4.50,27701,"$1,341+","$1,705+","$1,872+","$1,544+","$2,386+"
98,Bexley At Springs Farm,https://www.rentcafe.com/apartments/nc/charlotte/bexley-at-springs-farm/default.aspx,"3300 Open Field Lane,",Charlotte,NC,4.50,28226,"$1,525+","$1,920+",Ask for pricing,"$1,544+","$2,386+"
99,Deerbrook Apartments,https://www.rentcafe.com/apartments/nc/wilmington/deerbrook-apartments/default.aspx,"703 Grathwol Dr.,",Wilmington,NC,4.50,28405,Ask for pricing,"$1,263+","$1,459+","$1,544+","$2,386+"
