,name,link,address,city,state,ratings,zipcode,1 BED,2 BEDS,3 BEDS,4 BEDS,Studio,2+ BEDS
0,Brighton Park,https://www.rentcafe.com/apartments/nc/greenville/brighton-park0/default.aspx,2500 W 5Th St,Greenville,NC,,27834,$895+,Ask for pricing,,,,
1,Abberly Liberty Crossing Apartment Homes,https://www.rentcafe.com/apartments/nc/charlotte/abberly-liberty-crossing/default.aspx,16200 Croft Drive,Charlotte,NC,,28269,"$1,538+","$1,854+","$2,320+",,,
2,6130 Hunter Ave,https://www.rentcafe.com/apartments/nc/charlotte/6130-hunter-ave/default.aspx,6130 Hunter Ave,Charlotte,NC,,28262,"$1,538+","$1,854+","$2,320+","$2,149",,
3,Matthews Square Apartments,https://www.rentcafe.com/apartments/nc/matthews/bainbridge-matthews/default.aspx,4010 Waiting Street,Matthews,NC,4.00,28105,"$1,445+","$2,070+",Ask for pricing,"$2,149",,
4,Bell Riverbend Village,https://www.rentcafe.com/apartments/nc/charlotte/bell-riverbend-village/default.aspx,1018 Riverbend Station Terrace,Charlotte,NC,4.50,28216,"$1,355+","$1,545+",Ask for pricing,"$2,149",,
5,Pointe At Wimbledon,https://www.rentcafe.com/apartments/nc/greenville/pointe-at-wimbledon/default.aspx,1530 Wimbledon Drive,Greenville,NC,4.50,27858,"$1,112","$1,425","$1,601","$2,149",,
6,"2518 Mid Salem Drive Winston Salem, NC  27103",https://www.rentcafe.com/apartments/nc/winston-salem/2518-mid-salem-drive-winston-salem-nc-27103/default.aspx,2518 Mid Salem Drive,Winston Salem,NC,4.50,27103,"$1,112","$1,425","$1,400","$2,149",,
7,The Verandas At Lake Norman,https://www.rentcafe.com/apartments/nc/cornelius/the-verandas-at-lake-norman/default.aspx,18510 The Commons Blvd,Cornelius,NC,4.00,28031,"$1,182+","$1,459+","$1,752+","$2,149",,
8,Legacy At Sedgefield,https://www.rentcafe.com/apartments/nc/greensboro/legacy-at-sedgefield/default.aspx,3716-A Groometown Road,Greensboro,NC,4.00,27406,"$1,182+","$1,200","$1,752+","$2,149",,
9,Midtown 205,https://www.rentcafe.com/apartments/nc/charlotte/midtown-205/default.aspx,205 S Kings Dr,Charlotte,NC,4.00,28204,"$1,499+","$2,100+","$1,752+","$2,149","$1,364+",
10,Hawthorne At New Centre,https://www.rentcafe.com/apartments/nc/wilmington/hawthorne-at-new-centre/default.aspx,137 Dapple Court,Wilmington,NC,5.00,28403,"$1,070","$1,365","$1,752+","$2,149","$1,364+",
11,2200 Midtown Apartment Homes,https://www.rentcafe.com/apartments/nc/greensboro/2200-midtown-apartment-homes/default.aspx,2200 West Cornwallis Drive,Greensboro,NC,3.50,27408,$950+,"$1,065","$1,752+","$2,149","$1,364+",
12,Parkside At Five Points,https://www.rentcafe.com/apartments/nc/raleigh/parkside-at-five-points0/default.aspx,2609 Mcneill St,Raleigh,NC,3.50,27608,Ask for pricing,"$1,475+","$1,752+","$2,149","$1,364+",
13,The View At 5010,https://www.rentcafe.com/apartments/nc/winston-salem/the-view-at-5010/default.aspx,5010 Split Rail Circle,Winston-Salem,NC,4.00,27106,$920,"$1,015",Ask for pricing,"$2,149","$1,364+",
14,LangTree Lake Norman Apartments,https://www.rentcafe.com/apartments/nc/mooresville/langtree-lake-norman-apartments/default.aspx,150 Landings Dr,Mooresville,NC,5.00,28117,"$1,558+","$2,007+","$2,549+","$2,149","$1,364+",
15,Cardinal Apartments,https://www.rentcafe.com/apartments/nc/greensboro/cardinal-apartments/default.aspx,6400 Old Oak Ridge Rd,Greensboro,NC,5.00,27410,"$1,027+","$1,214+","$2,549+","$2,149","$1,364+",
16,Berkshire Place,https://www.rentcafe.com/apartments/nc/charlotte/berkshire-place/default.aspx,7700 Cedar Point Lane,Charlotte,NC,4.50,28210,"$1,056+","$1,447+",Ask for pricing,"$2,149","$1,364+",
17,Vyne On Central,https://www.rentcafe.com/apartments/nc/charlotte/vyne-on-central/default.aspx,3214 Central Ave,Charlotte,NC,4.50,28205,"$1,056+","$1,447+",Ask for pricing,"$2,149","$1,364+",
18,1339 Lauren Village Dr,https://www.rentcafe.com/apartments/nc/charlotte/1339-lauren-village-dr/default.aspx,1339 Lauren Village Dr,Charlotte,NC,4.50,28213,"$1,056+","$1,447+",Ask for pricing,"$1,999","$1,364+",
19,Sherwood Station,https://www.rentcafe.com/apartments/nc/winston-salem/sherwood-station/default.aspx,3535 Beacon Hill Drive,Winston-Salem,NC,4.50,27106,$960+,"$1,155+",Ask for pricing,"$1,999","$1,364+",
20,Atlas Durham,https://www.rentcafe.com/apartments/nc/durham/atlas2/default.aspx,321 W Corporation Street,Durham,NC,4.50,27701,"$1,430+","$2,800+",Ask for pricing,"$1,999","$1,370",
21,The Park At North Ridge,https://www.rentcafe.com/apartments/nc/raleigh/the-park-at-north-ridge/default.aspx,7100 Claxton Circle,Raleigh,NC,4.00,27615,"$1,295+","$1,410+",Ask for pricing,"$1,999","$1,370",
22,420 WESLEY AVENUE,https://www.rentcafe.com/apartments/nc/wilmington/420-wesley-avenue-0/default.aspx,420 WESLEY AVENUE,Wilmington,NC,4.00,28403,"$1,295+","$1,410+","$1,800","$1,999","$1,370",
23,Exchange At Holly Springs,https://www.rentcafe.com/apartments/nc/holly-springs/exchange-at-holly-springs/default.aspx,1101 Club Exchange Drive,Holly Springs,NC,4.00,27540,"$1,510+","$1,545+","$2,110+","$1,999","$1,370",
24,1509 Corbett Street,https://www.rentcafe.com/apartments/nc/wilmington/1509-corbett-street/default.aspx,1509 Corbett Street,Wilmington,NC,4.00,28401,"$1,510+","$1,545+","$2,299","$1,999","$1,370",
25,The Park At Caterina,https://www.rentcafe.com/apartments/nc/charlotte/the-park-at-caterina/default.aspx,10019 Plum Creek Lane,Charlotte,NC,4.00,28210,"$1,199","$1,299","$2,299","$1,999",Ask for pricing,
26,Clairmont At Perry Creek,https://www.rentcafe.com/apartments/nc/raleigh/clairmont-at-perry-creek/default.aspx,8430 Perry Pines Drive,Raleigh,NC,4.00,27616,"$1,235+","$1,495+","$1,700+","$1,999",Ask for pricing,
27,Lakewood I And II Apartment Homes,https://www.rentcafe.com/apartments/nc/salisbury/lakewood-i-ii-apartment-homes/default.aspx,50 Lakewood Dr,Salisbury,NC,3.50,28147,$915+,"$1,495+","$1,700+","$1,999",$785+,"$1,095+"
28,Spring Garden Apartments,https://www.rentcafe.com/apartments/nc/winston-salem/spring-garden-apartments1/default.aspx,665 N Spring Street,Winston Salem,NC,3.50,27101,$895,"$1,495+","$1,700+","$1,999",$785+,"$1,095+"
29,Greenway Flats Apartments,https://www.rentcafe.com/apartments/nc/raleigh/greenway-flats-apartments/default.aspx,1107 Garner Road,Raleigh,NC,3.50,27601,$895,"$1,495+","$1,700+","$1,999",$785+,"$1,095+"
30,Whitehall Estates,https://www.rentcafe.com/apartments/nc/charlotte/whitehall-estates/default.aspx,2400 Whitehall Estates Drive,Charlotte,NC,3.50,28273,"$1,387+","$1,505+","$1,821","$1,999",$785+,"$1,095+"
31,Bexley At Carpenter Village,https://www.rentcafe.com/apartments/nc/cary/bexley-at-carpenter-village/default.aspx,2000 Geddy House Lane,Cary,NC,4.00,27519,"$1,350+","$1,555+",Ask for pricing,"$1,999",$785+,"$1,095+"
32,Fox Chase,https://www.rentcafe.com/apartments/nc/durham/fox-chase-1/default.aspx,3601 Highgate Drive,Durham,NC,4.00,27713,"$1,184+","$1,555+",Ask for pricing,"$1,999",$785+,"$1,095+"
33,Avalon East,https://www.rentcafe.com/apartments/nc/durham/avalon-east/default.aspx,325 Bridgefield Place,Durham,NC,4.50,27705,"$1,212+","$1,555+",Ask for pricing,"$1,999",$785+,"$1,095+"
34,The Davy,https://www.rentcafe.com/apartments/nc/charlotte/the-davy/default.aspx,514 E 35Th Street,Charlotte,NC,4.50,28205,"$1,275",Ask for pricing,Ask for pricing,"$1,999",$785+,"$1,095+"
35,Woodcreek Apartments,https://www.rentcafe.com/apartments/nc/cary/woodcreek-apartments/default.aspx,100 Stephanie Dr,Cary,NC,5.00,27511,"$1,199+","$1,311+",Ask for pricing,"$1,999",$785+,"$1,095+"
36,Waterlynn At Concord,https://www.rentcafe.com/apartments/nc/concord/waterlynn-at-concord/default.aspx,7850 Waterway Drive NW,Concord,NC,5.00,28027,"$1,495+","$1,653+","$1,999+","$1,999",$785+,"$1,095+"
37,Mosaic South End Apartments,https://www.rentcafe.com/apartments/nc/charlotte/mosaic-south-end/default.aspx,1312 S. College Street,Charlotte,NC,5.00,28203,"$1,629+","$1,653+","$1,999+","$1,999",Ask for pricing,"$2,601+"
38,Timber Creek,https://www.rentcafe.com/apartments/nc/charlotte/timber-creek-1/default.aspx,1100 Falls Creek Ln,Charlotte,NC,4.00,28209,"$1,326+","$1,378+","$1,999+","$1,999","$1,033+","$2,601+"
39,3316 Fincher Blvd,https://www.rentcafe.com/apartments/nc/charlotte/3316-fincher-blvd/default.aspx,3316 Fincher Blvd,Charlotte,NC,4.00,28269,"$1,326+","$1,378+","$1,999+","$2,149","$1,033+","$2,601+"
40,Briley,https://www.rentcafe.com/apartments/nc/matthews/briley-apartments/default.aspx,10731 Surrey Green Lane,Matthews,NC,4.50,28105,"$1,485+","$1,378+","$1,999+","$2,149","$1,560+","$1,960+"
41,Mountaineer Village,https://www.rentcafe.com/apartments/nc/boone/mountaineer-village/default.aspx,517 Yosef Drive,Boone,NC,4.50,28607,"$1,485+","$1,378+","$1,999+","$2,149","$1,560+","$1,960+"
42,Avril Cambridge Village,https://www.rentcafe.com/apartments/nc/denver/avril-cambridge-village/default.aspx,1332 Holly Rush Lane,Denver,NC,4.00,28037,"$1,400+","$1,540","$2,100+","$2,149","$1,560+","$1,960+"
43,Park Forest,https://www.rentcafe.com/apartments/nc/greensboro/park-forest0/default.aspx,3214 Brassfield Rd.,Greensboro,NC,4.00,27410,"$1,019+","$1,352+","$2,100+","$2,149","$1,560+","$1,960+"
44,Retreat At McAlpine Creek,https://www.rentcafe.com/apartments/nc/charlotte/retreat-at-mcalpine-creek/default.aspx,6800 Fishers Farm Lane,Charlotte,NC,4.50,28277,"$1,260+","$1,496+","$1,857+","$2,149","$1,560+","$1,960+"
45,Bristol Park,https://www.rentcafe.com/apartments/nc/fayetteville/bristol-park0/default.aspx,1141 Glen Iris Drive,Fayetteville,NC,4.00,28314,"$1,260+","$1,300",Ask for pricing,"$2,149","$1,560+","$1,960+"
46,Enclave At North Point Apartment Homes,https://www.rentcafe.com/apartments/nc/winston-salem/enclave-at-north-point-apartment-homes/default.aspx,4260 Brownsboro Rd,Winston-Salem,NC,4.00,27106,$855+,$905+,"$1,170+","$2,149","$1,560+","$1,960+"
47,Hawthorne At Main,https://www.rentcafe.com/apartments/nc/kernersville/hawthorne-at-main/default.aspx,100 Madison Place Circle,Kernersville,NC,4.00,27284,"$1,359+","$1,465+","$1,564","$2,149","$1,560+","$1,960+"
48,Clairmont At Farmgate,https://www.rentcafe.com/apartments/nc/raleigh/clairmont-at-farmgate/default.aspx,6301 Daybrook Circle,Raleigh,NC,4.00,27606,"$1,245+","$1,495+","$1,750+","$2,149","$1,560+","$1,960+"
49,Bell Chapel Hill,https://www.rentcafe.com/apartments/nc/chapel-hill/bell-chapel-hill/default.aspx,1300 Fordham Blvd,Chapel Hill,NC,5.00,27514,"$2,185+","$2,765+","$1,750+","$2,149","$1,725+","$1,960+"
50,Brighton Park,https://www.rentcafe.com/apartments/nc/greenville/brighton-park0/default.aspx,"2500 W 5Th St,",Greenville,NC,5.00,27834,$895+,Ask for pricing,"$1,750+","$2,149","$1,725+","$1,960+"
51,Abberly Liberty Crossing Apartment Homes,https://www.rentcafe.com/apartments/nc/charlotte/abberly-liberty-crossing/default.aspx,"16200 Croft Drive,",Charlotte,NC,5.00,28269,"$1,538+","$1,854+","$2,320+","$2,149","$1,725+","$1,960+"
52,6130 Hunter Ave,https://www.rentcafe.com/apartments/nc/charlotte/6130-hunter-ave/default.aspx,"6130 Hunter Ave,",Charlotte,NC,5.00,28262,"$1,538+","$1,854+","$2,320+","$2,149","$1,725+","$1,960+"
53,Matthews Square Apartments,https://www.rentcafe.com/apartments/nc/matthews/bainbridge-matthews/default.aspx,"4010 Waiting Street,",Matthews,NC,5.00,28105,"$1,445+","$2,070+",Ask for pricing,"$2,149","$1,725+","$1,960+"
54,Bell Riverbend Village,https://www.rentcafe.com/apartments/nc/charlotte/bell-riverbend-village/default.aspx,"1018 Riverbend Station Terrace,",Charlotte,NC,5.00,28216,"$1,355+","$1,545+",Ask for pricing,"$2,149","$1,725+","$1,960+"
55,Pointe At Wimbledon,https://www.rentcafe.com/apartments/nc/greenville/pointe-at-wimbledon/default.aspx,"1530 Wimbledon Drive,",Greenville,NC,5.00,27858,"$1,112","$1,425","$1,601","$2,149","$1,725+","$1,960+"
56,"2518 Mid Salem Drive Winston Salem, NC  27103",https://www.rentcafe.com/apartments/nc/winston-salem/2518-mid-salem-drive-winston-salem-nc-27103/default.aspx,"2518 Mid Salem Drive,",Winston Salem,NC,5.00,27103,"$1,112","$1,425","$1,400","$2,149","$1,725+","$1,960+"
57,The Verandas At Lake Norman,https://www.rentcafe.com/apartments/nc/cornelius/the-verandas-at-lake-norman/default.aspx,"18510 The Commons Blvd,",Cornelius,NC,5.00,28031,"$1,182+","$1,459+","$1,752+","$2,149","$1,725+","$1,960+"
58,Legacy At Sedgefield,https://www.rentcafe.com/apartments/nc/greensboro/legacy-at-sedgefield/default.aspx,"3716-A Groometown Road,",Greensboro,NC,5.00,27406,"$1,182+","$1,200","$1,752+","$2,149","$1,725+","$1,960+"
59,Midtown 205,https://www.rentcafe.com/apartments/nc/charlotte/midtown-205/default.aspx,"205 S Kings Dr,",Charlotte,NC,5.00,28204,"$1,499+","$2,100+","$1,752+","$2,149","$1,364+","$1,960+"
60,Hawthorne At New Centre,https://www.rentcafe.com/apartments/nc/wilmington/hawthorne-at-new-centre/default.aspx,"137 Dapple Court,",Wilmington,NC,5.00,28403,"$1,070","$1,365","$1,752+","$2,149","$1,364+","$1,960+"
61,2200 Midtown Apartment Homes,https://www.rentcafe.com/apartments/nc/greensboro/2200-midtown-apartment-homes/default.aspx,"2200 West Cornwallis Drive,",Greensboro,NC,5.00,27408,$950+,"$1,065","$1,752+","$2,149","$1,364+","$1,960+"
62,Parkside At Five Points,https://www.rentcafe.com/apartments/nc/raleigh/parkside-at-five-points0/default.aspx,"2609 Mcneill St,",Raleigh,NC,5.00,27608,Ask for pricing,"$1,475+","$1,752+","$2,149","$1,364+","$1,960+"
63,The View At 5010,https://www.rentcafe.com/apartments/nc/winston-salem/the-view-at-5010/default.aspx,"5010 Split Rail Circle,",Winston-Salem,NC,5.00,27106,$920,"$1,015",Ask for pricing,"$2,149","$1,364+","$1,960+"
64,LangTree Lake Norman Apartments,https://www.rentcafe.com/apartments/nc/mooresville/langtree-lake-norman-apartments/default.aspx,"150 Landings Dr,",Mooresville,NC,5.00,28117,"$1,558+","$2,007+","$2,549+","$2,149","$1,364+","$1,960+"
65,Cardinal Apartments,https://www.rentcafe.com/apartments/nc/greensboro/cardinal-apartments/default.aspx,"6400 Old Oak Ridge Rd,",Greensboro,NC,5.00,27410,"$1,027+","$1,214+","$2,549+","$2,149","$1,364+","$1,960+"
66,Berkshire Place,https://www.rentcafe.com/apartments/nc/charlotte/berkshire-place/default.aspx,"7700 Cedar Point Lane,",Charlotte,NC,5.00,28210,"$1,056+","$1,447+",Ask for pricing,"$2,149","$1,364+","$1,960+"
67,Vyne On Central,https://www.rentcafe.com/apartments/nc/charlotte/vyne-on-central/default.aspx,"3214 Central Ave,",Charlotte,NC,5.00,28205,"$1,056+","$1,447+",Ask for pricing,"$2,149","$1,364+","$1,960+"
68,1339 Lauren Village Dr,https://www.rentcafe.com/apartments/nc/charlotte/1339-lauren-village-dr/default.aspx,"1339 Lauren Village Dr,",Charlotte,NC,5.00,28213,"$1,056+","$1,447+",Ask for pricing,"$1,999","$1,364+","$1,960+"
69,Sherwood Station,https://www.rentcafe.com/apartments/nc/winston-salem/sherwood-station/default.aspx,"3535 Beacon Hill Drive,",Winston-Salem,NC,5.00,27106,$960+,"$1,155+",Ask for pricing,"$1,999","$1,364+","$1,960+"
70,Atlas Durham,https://www.rentcafe.com/apartments/nc/durham/atlas2/default.aspx,"321 W Corporation Street,",Durham,NC,5.00,27701,"$1,430+","$2,800+",Ask for pricing,"$1,999","$1,370","$1,960+"
71,The Park At North Ridge,https://www.rentcafe.com/apartments/nc/raleigh/the-park-at-north-ridge/default.aspx,"7100 Claxton Circle,",Raleigh,NC,5.00,27615,"$1,295+","$1,410+",Ask for pricing,"$1,999","$1,370","$1,960+"
72,420 WESLEY AVENUE,https://www.rentcafe.com/apartments/nc/wilmington/420-wesley-avenue-0/default.aspx,"420 WESLEY AVENUE,",Wilmington,NC,5.00,28403,"$1,295+","$1,410+","$1,800","$1,999","$1,370","$1,960+"
73,Exchange At Holly Springs,https://www.rentcafe.com/apartments/nc/holly-springs/exchange-at-holly-springs/default.aspx,"1101 Club Exchange Drive,",Holly Springs,NC,5.00,27540,"$1,510+","$1,545+","$2,110+","$1,999","$1,370","$1,960+"
74,1509 Corbett Street,https://www.rentcafe.com/apartments/nc/wilmington/1509-corbett-street/default.aspx,"1509 Corbett Street,",Wilmington,NC,5.00,28401,"$1,510+","$1,545+","$2,299","$1,999","$1,370","$1,960+"
75,The Park At Caterina,https://www.rentcafe.com/apartments/nc/charlotte/the-park-at-caterina/default.aspx,"10019 Plum Creek Lane,",Charlotte,NC,5.00,28210,"$1,199","$1,299","$2,299","$1,999",Ask for pricing,"$1,960+"
76,Clairmont At Perry Creek,https://www.rentcafe.com/apartments/nc/raleigh/clairmont-at-perry-creek/default.aspx,"8430 Perry Pines Drive,",Raleigh,NC,5.00,27616,"$1,235+","$1,495+","$1,700+","$1,999",Ask for pricing,"$1,960+"
77,Lakewood I And II Apartment Homes,https://www.rentcafe.com/apartments/nc/salisbury/lakewood-i-ii-apartment-homes/default.aspx,"50 Lakewood Dr,",Salisbury,NC,5.00,28147,$915+,"$1,495+","$1,700+","$1,999",$785+,"$1,095+"
78,Spring Garden Apartments,https://www.rentcafe.com/apartments/nc/winston-salem/spring-garden-apartments1/default.aspx,"665 N Spring Street,",Winston Salem,NC,5.00,27101,$895,"$1,495+","$1,700+","$1,999",$785+,"$1,095+"
79,Greenway Flats Apartments,https://www.rentcafe.com/apartments/nc/raleigh/greenway-flats-apartments/default.aspx,"1107 Garner Road,",Raleigh,NC,5.00,27601,$895,"$1,495+","$1,700+","$1,999",$785+,"$1,095+"
80,Whitehall Estates,https://www.rentcafe.com/apartments/nc/charlotte/whitehall-estates/default.aspx,"2400 Whitehall Estates Drive,",Charlotte,NC,5.00,28273,"$1,387+","$1,505+","$1,821","$1,999",$785+,"$1,095+"
81,Bexley At Carpenter Village,https://www.rentcafe.com/apartments/nc/cary/bexley-at-carpenter-village/default.aspx,"2000 Geddy House Lane,",Cary,NC,5.00,27519,"$1,350+","$1,555+",Ask for pricing,"$1,999",$785+,"$1,095+"
82,Fox Chase,https://www.rentcafe.com/apartments/nc/durham/fox-chase-1/default.aspx,"3601 Highgate Drive,",Durham,NC,5.00,27713,"$1,184+","$1,555+",Ask for pricing,"$1,999",$785+,"$1,095+"
83,Avalon East,https://www.rentcafe.com/apartments/nc/durham/avalon-east/default.aspx,"325 Bridgefield Place,",Durham,NC,5.00,27705,"$1,212+","$1,555+",Ask for pricing,"$1,999",$785+,"$1,095+"
84,The Davy,https://www.rentcafe.com/apartments/nc/charlotte/the-davy/default.aspx,"514 E 35Th Street,",Charlotte,NC,5.00,28205,"$1,275",Ask for pricing,Ask for pricing,"$1,999",$785+,"$1,095+"
85,Woodcreek Apartments,https://www.rentcafe.com/apartments/nc/cary/woodcreek-apartments/default.aspx,"100 Stephanie Dr,",Cary,NC,5.00,27511,"$1,199+","$1,311+",Ask for pricing,"$1,999",$785+,"$1,095+"
86,Waterlynn At Concord,https://www.rentcafe.com/apartments/nc/concord/waterlynn-at-concord/default.aspx,"7850 Waterway Drive NW,",Concord,NC,5.00,28027,"$1,495+","$1,653+","$1,999+","$1,999",$785+,"$1,095+"
87,Mosaic South End Apartments,https://www.rentcafe.com/apartments/nc/charlotte/mosaic-south-end/default.aspx,"1312 S. College Street,",Charlotte,NC,5.00,28203,"$1,629+","$1,653+","$1,999+","$1,999",Ask for pricing,"$2,601+"
88,Timber Creek,https://www.rentcafe.com/apartments/nc/charlotte/timber-creek-1/default.aspx,"1100 Falls Creek Ln,",Charlotte,NC,5.00,28209,"$1,326+","$1,378+","$1,999+","$1,999","$1,033+","$2,601+"
89,3316 Fincher Blvd,https://www.rentcafe.com/apartments/nc/charlotte/3316-fincher-blvd/default.aspx,"3316 Fincher Blvd,",Charlotte,NC,5.00,28269,"$1,326+","$1,378+","$1,999+","$2,149","$1,033+","$2,601+"
90,Briley,https://www.rentcafe.com/apartments/nc/matthews/briley-apartments/default.aspx,"10731 Surrey Green Lane,",Matthews,NC,5.00,28105,"$1,485+","$1,378+","$1,999+","$2,149","$1,560+","$1,960+"
91,Mountaineer Village,https://www.rentcafe.com/apartments/nc/boone/mountaineer-village/default.aspx,"517 Yosef Drive,",Boone,NC,5.00,28607,"$1,485+","$1,378+","$1,999+","$2,149","$1,560+","$1,960+"
92,Avril Cambridge Village,https://www.rentcafe.com/apartments/nc/denver/avril-cambridge-village/default.aspx,"1332 Holly Rush Lane,",Denver,NC,5.00,28037,"$1,400+","$1,540","$2,100+","$2,149","$1,560+","$1,960+"
93,Park Forest,https://www.rentcafe.com/apartments/nc/greensboro/park-forest0/default.aspx,"3214 Brassfield Rd.,",Greensboro,NC,5.00,27410,"$1,019+","$1,352+","$2,100+","$2,149","$1,560+","$1,960+"
94,Retreat At McAlpine Creek,https://www.rentcafe.com/apartments/nc/charlotte/retreat-at-mcalpine-creek/default.aspx,"6800 Fishers Farm Lane,",Charlotte,NC,5.00,28277,"$1,260+","$1,496+","$1,857+","$2,149","$1,560+","$1,960+"
95,Bristol Park,https://www.rentcafe.com/apartments/nc/fayetteville/bristol-park0/default.aspx,"1141 Glen Iris Drive,",Fayetteville,NC,5.00,28314,"$1,260+","$1,300",Ask for pricing,"$2,149","$1,560+","$1,960+"
96,Enclave At North Point Apartment Homes,https://www.rentcafe.com/apartments/nc/winston-salem/enclave-at-north-point-apartment-homes/default.aspx,"4260 Brownsboro Rd,",Winston-Salem,NC,5.00,27106,$855+,$905+,"$1,170+","$2,149","$1,560+","$1,960+"
97,Hawthorne At Main,https://www.rentcafe.com/apartments/nc/kernersville/hawthorne-at-main/default.aspx,"100 Madison Place Circle,",Kernersville,NC,5.00,27284,"$1,359+","$1,465+","$1,564","$2,149","$1,560+","$1,960+"
98,Clairmont At Farmgate,https://www.rentcafe.com/apartments/nc/raleigh/clairmont-at-farmgate/default.aspx,"6301 Daybrook Circle,",Raleigh,NC,5.00,27606,"$1,245+","$1,495+","$1,750+","$2,149","$1,560+","$1,960+"
99,Bell Chapel Hill,https://www.rentcafe.com/apartments/nc/chapel-hill/bell-chapel-hill/default.aspx,"1300 Fordham Blvd,",Chapel Hill,NC,5.00,27514,"$2,185+","$2,765+","$1,750+","$2,149","$1,725+","$1,960+"
