,name,link,address,city,state,ratings,zipcode,1 BED,Studio,2 BEDS,3 BEDS,2+ BEDS,3+ BEDS
0,Bradford Ridge,https://www.rentcafe.com/apartments/nc/durham/bradford-ridge/default.aspx,710 S. Lasalle Street,Durham,NC,,27705,"$1,689+",,,,,
1,Ivy Hollow,https://www.rentcafe.com/apartments/nc/charlotte/ivy-hollow-0/default.aspx,4920 Tanager Park Drive,Charlotte,NC,,28262,"$1,689+","$1,088",Ask for pricing,"$1,630+",,
2,The Banks At Rivergate,https://www.rentcafe.com/apartments/nc/charlotte/tryon-park-at-rivergate-3/default.aspx,12620 Toscana Way,Charlotte,NC,,28273,"$1,549","$1,088","$1,875+","$1,630+",,
3,Hawthorne At Haywood,https://www.rentcafe.com/apartments/nc/asheville/hawthorne-at-haywood-0/default.aspx,125 River Birch Grove Road,Asheville,NC,,28806,"$1,534+","$1,088","$1,893+","$2,196+",,
4,Autumn Pointe,https://www.rentcafe.com/apartments/nc/raleigh/autumn-pointe/default.aspx,"3401 Bremer Hall Ct,",Raleigh,NC,4.50,27615,"$1,289+","$1,088","$1,529+","$2,196+",,
5,Hideaway At Kingspark,https://www.rentcafe.com/apartments/nc/charlotte/hideaway-at-kingspark/default.aspx,2425 Kingspark Dr,Charlotte,NC,4.50,28208,"$1,289+","$1,088","$1,300","$2,196+",,
6,Stoney Trace,https://www.rentcafe.com/apartments/nc/charlotte/victoria-park-apartment-homes/default.aspx,4616 Stoney Trace Drive,Charlotte,NC,4.50,28227,"$1,244+","$1,088","$1,313+","$1,705+",,
7,Sutton Station,https://www.rentcafe.com/apartments/nc/durham/sutton-station/default.aspx,5836 Fayetteville Road,Durham,NC,4.50,27713,Ask for pricing,"$1,088","$1,727+","$1,705+",,
8,Still Meadow Village,https://www.rentcafe.com/apartments/nc/wilmington/still-meadow-village/default.aspx,4632 Still Meadow Dr.,Wilmington,NC,4.50,28412,Ask for pricing,"$1,088","$1,727+","$1,705+",,
9,Providence Court Apartments,https://www.rentcafe.com/apartments/nc/charlotte/providence-court-apartments/default.aspx,8110 Providence Ct Ln,Charlotte,NC,4.00,28270,"$1,345+","$1,088","$1,630+","$1,975+",,
10,Grand View Luxury Apartments,https://www.rentcafe.com/apartments/nc/wilmington/grand-view-luxury-apartments/default.aspx,7215 Wrightsville Avenue,Wilmington,NC,4.50,28403,Ask for pricing,"$1,088","$2,247+",Ask for pricing,,
11,Preserve At Mountain Island Lake,https://www.rentcafe.com/apartments/nc/charlotte/preserve-at-mountain-island-lake/default.aspx,10410 Cooks Way Drive,Charlotte,NC,3.50,28216,"$1,212+","$1,088","$1,500+","$1,599+",,
12,The Devon Four25,https://www.rentcafe.com/apartments/nc/raleigh/the-devon-four25/default.aspx,717 Tucker Street,Raleigh,NC,4.50,27603,"$1,415+","$1,597+","$2,228+","$1,599+",,
13,230 DIXIE AVENUE,https://www.rentcafe.com/apartments/nc/wilmington/230-dixie-avenue-0/default.aspx,230 DIXIE AVENUE,Wilmington,NC,4.50,28403,"$1,415+","$1,597+","$2,228+","$1,800",,
14,Burton Hills,https://www.rentcafe.com/apartments/nc/arden/burton-hills/default.aspx,105 Sweeten Grass Hill,Arden,NC,4.00,28074,"$1,678",Ask for pricing,"$2,228+","$1,800","$1,870+",
15,McArthur Landing,https://www.rentcafe.com/apartments/nc/fayetteville/mcarthur-landing-0/default.aspx,2500 Mcarthur Landing Circle,Fayetteville,NC,3.50,28311,"$1,678",Ask for pricing,"$1,300+","$1,450+","$1,870+",
16,5115 Park Place Apartments,https://www.rentcafe.com/apartments/nc/charlotte/5115-park-place/default.aspx,5115 Park Road,Charlotte,NC,3.50,28209,"$1,593+",Ask for pricing,"$1,300+","$1,450+","$1,931+",
17,The Park At San Remo,https://www.rentcafe.com/apartments/nc/charlotte/the-park-at-san-remo/default.aspx,8242 Runaway Bay Dr.,Charlotte,NC,3.50,28212,"$1,149",Ask for pricing,"$1,259",Ask for pricing,"$1,931+",
18,Carriage House,https://www.rentcafe.com/apartments/nc/greenville/carriage-house16/default.aspx,2421 Charles Blvd,Greenville,NC,3.50,27858,"$1,149",Ask for pricing,"$1,000",Ask for pricing,"$1,931+",
19,The Apartments At Blakeney,https://www.rentcafe.com/apartments/nc/charlotte/the-apartments-at-blakeney1/default.aspx,8718 Wintersweet Lane,Charlotte,NC,3.50,28277,"$1,591+",Ask for pricing,"$1,940+","$2,010+","$1,931+",
20,South Main Apartments,https://www.rentcafe.com/apartments/nc/hope-mills/south-main-apartments/default.aspx,4003 William Bill Luther Drive,Hope Mills,NC,3.50,28348,Ask for pricing,Ask for pricing,"$1,180+","$2,010+","$1,931+",
21,Adara Alexander Place,https://www.rentcafe.com/apartments/nc/raleigh/adara-alexander-place/default.aspx,7610 Aura Loop #101,Raleigh,NC,5.00,27617,"$1,589+",Ask for pricing,"$1,812+","$2,115+","$1,931+",
22,Kannan Station Apartment Homes,https://www.rentcafe.com/apartments/nc/kannapolis/kannon-station-apartment-homes/default.aspx,1100 Coopers Ridge Dr,Kannapolis,NC,4.00,28083,"$1,305+",Ask for pricing,"$1,812+","$2,115+",Ask for pricing,
23,The Meadows Apartment Homes,https://www.rentcafe.com/apartments/nc/asheville/the-meadows-apartment-homes/default.aspx,99 Ascension Drive,Asheville,NC,4.50,28806,"$1,199",Ask for pricing,"$1,459","$1,649+",Ask for pricing,
24,Retreat At Weaverville,https://www.rentcafe.com/apartments/nc/weaverville/retreat-at-weaverville/default.aspx,61 Garrison Branch Road,Weaverville,NC,4.50,28787,"$1,449+",Ask for pricing,"$1,699","$2,199",Ask for pricing,
25,808 Hawthorne,https://www.rentcafe.com/apartments/nc/charlotte/808-hawthorne/default.aspx,808 Hawthorne Lane,Charlotte,NC,4.50,28204,"$1,344+",Ask for pricing,"$2,155+",Ask for pricing,Ask for pricing,
26,Grace Park,https://www.rentcafe.com/apartments/nc/morrisville/grace-park0/default.aspx,3109 Grace Park Drive,Morrisville,NC,4.50,27560,Ask for pricing,Ask for pricing,"$1,725",Ask for pricing,Ask for pricing,"$2,400"
27,Radbourne Lake,https://www.rentcafe.com/apartments/nc/charlotte/radbourne-lake/default.aspx,3209 Westbury Lake Dr,Charlotte,NC,4.00,28269,"$1,189+",Ask for pricing,"$1,409+",Ask for pricing,Ask for pricing,"$2,400"
28,Millis And Main At Grandover,https://www.rentcafe.com/apartments/nc/jamestown/millis-and-main-at-grandover/default.aspx,4301 Millis Road,Jamestown,NC,4.00,27282,"$1,400",Ask for pricing,"$1,524+","$1,950",Ask for pricing,"$2,400"
29,Berkshire Ninth Street,https://www.rentcafe.com/apartments/nc/durham/berkshire-ninth-street/default.aspx,749 Ninth Street,Durham,NC,4.50,27705,Ask for pricing,"$1,788+","$1,524+","$1,950",Ask for pricing,"$2,400"
30,Blackwolf Run At Hedingham,https://www.rentcafe.com/apartments/nc/raleigh/blackwolf-run0/default.aspx,2101 Blackwolf Run Lane,Raleigh,NC,4.50,27604,"$1,387+","$1,788+","$1,629+","$1,746+",Ask for pricing,"$2,400"
31,Waters Edge Apartment Homes,https://www.rentcafe.com/apartments/nc/concord/waters-edge-apartment-homes-nc/default.aspx,100 Waterview Dr,Concord,NC,4.00,28027,"$1,195+","$1,045+","$1,629+","$1,746+","$1,350+","$2,400"
32,Arbor Glen,https://www.rentcafe.com/apartments/nc/eden/arbor-glen2/default.aspx,643 S Pierce St,Eden,NC,4.00,27288,"$1,195+","$1,045+","$1,629+","$1,746+","$1,350+","$2,400"
33,Elevate Haw River*,https://www.rentcafe.com/apartments/nc/graham/elevate-haw-river0/default.aspx,2310 Vantage Point,Graham,NC,4.00,27253,"$1,270+","$1,045+","$1,450+","$2,175+","$1,350+","$2,400"
34,Village At Cliffdale Apartment Homes,https://www.rentcafe.com/apartments/nc/fayetteville/village-at-cliffdale-apartment-homes/default.aspx,567 Cutchen Lane,Fayetteville,NC,3.50,28314,$955+,"$1,045+","$1,050+","$1,425+","$1,350+","$2,400"
35,Ellington Farms,https://www.rentcafe.com/apartments/nc/wilmington/ellington-farms-1/default.aspx,505 Vorils Lane,Wilmington,NC,3.50,28411,$955+,"$1,045+","$1,050+","$1,425+","$1,350+","$2,400"
36,Stonehenge,https://www.rentcafe.com/apartments/nc/raleigh/stonehenge-4/default.aspx,7303 Hihenge Ct,Raleigh,NC,4.50,27615,"$1,240+","$1,045+","$1,475+","$1,940+","$1,350+","$2,400"
37,LaVie SouthPark,https://www.rentcafe.com/apartments/nc/charlotte/lavie-southpark0/default.aspx,5725 Carnegie Blvd,Charlotte,NC,3.50,28209,"$1,518+",Ask for pricing,"$2,125+","$1,940+","$1,350+","$2,400"
38,Hawthorne At The Meadows,https://www.rentcafe.com/apartments/nc/kernersville/hawthorne-at-the-meadows/default.aspx,1341 Ellis Forest Road,Kernersville,NC,4.50,27284,"$1,183+",Ask for pricing,"$1,253+","$1,689","$1,350+","$2,400"
39,White Oak Grove Apartments,https://www.rentcafe.com/apartments/nc/asheville/white-oak-grove-apartment/default.aspx,"1 Hazel Knoll Circle, Suite 004",Asheville,NC,4.50,28806,"$1,183+",Ask for pricing,"$1,253+","$1,689","$1,350+","$2,400"
40,Bexley At Preston,https://www.rentcafe.com/apartments/nc/morrisville/bexley-at-preston/default.aspx,1300 Sterling Green Drive,Morrisville,NC,4.50,27560,"$1,420+",Ask for pricing,"$1,689+","$1,964+","$1,350+","$2,400"
41,Link Apartments® Brookstown,https://www.rentcafe.com/apartments/nc/winston-salem/link-apartments-brookstown/default.aspx,150 Peters Creek Parkway,Winston Salem,NC,5.00,27101,"$1,395+",Ask for pricing,Ask for pricing,"$1,964+","$1,350+","$2,400"
42,The Tribute,https://www.rentcafe.com/apartments/nc/raleigh/the-tribute-1/default.aspx,1300 Tribute Center Dr,Raleigh,NC,5.00,27612,"$1,410+","$1,280+",Ask for pricing,"$1,964+","$1,645+","$2,400"
43,Reserve At Providence,https://www.rentcafe.com/apartments/nc/charlotte/reserve-at-providence/default.aspx,6060 Reserve Drive,Charlotte,NC,5.00,28270,"$1,149+","$1,280+","$1,385+","$1,964+","$1,645+","$1,775+"
44,Plant 64,https://www.rentcafe.com/apartments/nc/winston-salem/plant-64/default.aspx,545 Power Plant Circle,Winston-Salem,NC,5.00,27101,"$1,249+","$1,280+","$1,549+",Ask for pricing,"$1,645+","$1,775+"
45,Six Forks Station Apartments,https://www.rentcafe.com/apartments/nc/raleigh/six-forks-station2/default.aspx,8501 New Brunswick Ln,Raleigh,NC,4.00,27615,"$1,421+","$1,280+","$1,624+","$1,589+","$1,645+","$1,775+"
46,Parkstone At Knightdale,https://www.rentcafe.com/apartments/nc/knightdale/parkstone-at-knightdale/default.aspx,1001 Park Commons Drive,Knightdale,NC,4.50,27545,"$1,746+","$1,280+","$1,849+","$1,956+","$1,645+","$1,775+"
47,Sedgefield Apartments,https://www.rentcafe.com/apartments/nc/winston-salem/sedgefield-apartments1/default.aspx,4755 Country Club Road,Winston Salem,NC,4.50,27104,$965,"$1,280+","$1,145","$1,956+","$1,645+","$1,775+"
48,The Falls,https://www.rentcafe.com/apartments/nc/raleigh/the-falls-0/default.aspx,4518 Tournament Drive,Raleigh,NC,4.50,27612,"$1,138+","$1,154+","$1,289+","$1,956+","$1,645+","$1,775+"
49,Northpoint Apartments,https://www.rentcafe.com/apartments/nc/spring-lake/northpoint-apartments0/default.aspx,16B Wedgewood Dr.,Spring Lake,NC,4.50,28390,"$1,138+","$1,154+",$850+,"$1,956+","$1,645+","$1,775+"
50,Bradford Ridge,https://www.rentcafe.com/apartments/nc/durham/bradford-ridge/default.aspx,"710 S. Lasalle Street,",Durham,NC,4.50,27705,"$1,689+","$1,154+",$850+,"$1,956+","$1,645+","$1,775+"
51,Ivy Hollow,https://www.rentcafe.com/apartments/nc/charlotte/ivy-hollow-0/default.aspx,"4920 Tanager Park Drive,",Charlotte,NC,4.50,28262,"$1,689+","$1,088",Ask for pricing,"$1,630+","$1,645+","$1,775+"
52,The Banks At Rivergate,https://www.rentcafe.com/apartments/nc/charlotte/tryon-park-at-rivergate-3/default.aspx,"12620 Toscana Way,",Charlotte,NC,4.50,28273,"$1,549","$1,088","$1,875+","$1,630+","$1,645+","$1,775+"
53,Hawthorne At Haywood,https://www.rentcafe.com/apartments/nc/asheville/hawthorne-at-haywood-0/default.aspx,"125 River Birch Grove Road,",Asheville,NC,4.50,28806,"$1,534+","$1,088","$1,893+","$2,196+","$1,645+","$1,775+"
54,Autumn Pointe,https://www.rentcafe.com/apartments/nc/raleigh/autumn-pointe/default.aspx,"3401 Bremer Hall Ct,,",Raleigh,NC,4.50,27615,"$1,289+","$1,088","$1,529+","$2,196+","$1,645+","$1,775+"
55,Hideaway At Kingspark,https://www.rentcafe.com/apartments/nc/charlotte/hideaway-at-kingspark/default.aspx,"2425 Kingspark Dr,",Charlotte,NC,4.50,28208,"$1,289+","$1,088","$1,300","$2,196+","$1,645+","$1,775+"
56,Stoney Trace,https://www.rentcafe.com/apartments/nc/charlotte/victoria-park-apartment-homes/default.aspx,"4616 Stoney Trace Drive,",Charlotte,NC,4.50,28227,"$1,244+","$1,088","$1,313+","$1,705+","$1,645+","$1,775+"
57,Sutton Station,https://www.rentcafe.com/apartments/nc/durham/sutton-station/default.aspx,"5836 Fayetteville Road,",Durham,NC,4.50,27713,Ask for pricing,"$1,088","$1,727+","$1,705+","$1,645+","$1,775+"
58,Still Meadow Village,https://www.rentcafe.com/apartments/nc/wilmington/still-meadow-village/default.aspx,"4632 Still Meadow Dr.,",Wilmington,NC,4.50,28412,Ask for pricing,"$1,088","$1,727+","$1,705+","$1,645+","$1,775+"
59,Providence Court Apartments,https://www.rentcafe.com/apartments/nc/charlotte/providence-court-apartments/default.aspx,"8110 Providence Ct Ln,",Charlotte,NC,4.50,28270,"$1,345+","$1,088","$1,630+","$1,975+","$1,645+","$1,775+"
60,Grand View Luxury Apartments,https://www.rentcafe.com/apartments/nc/wilmington/grand-view-luxury-apartments/default.aspx,"7215 Wrightsville Avenue,",Wilmington,NC,4.50,28403,Ask for pricing,"$1,088","$2,247+",Ask for pricing,"$1,645+","$1,775+"
61,Preserve At Mountain Island Lake,https://www.rentcafe.com/apartments/nc/charlotte/preserve-at-mountain-island-lake/default.aspx,"10410 Cooks Way Drive,",Charlotte,NC,4.50,28216,"$1,212+","$1,088","$1,500+","$1,599+","$1,645+","$1,775+"
62,The Devon Four25,https://www.rentcafe.com/apartments/nc/raleigh/the-devon-four25/default.aspx,"717 Tucker Street,",Raleigh,NC,4.50,27603,"$1,415+","$1,597+","$2,228+","$1,599+","$1,645+","$1,775+"
63,230 DIXIE AVENUE,https://www.rentcafe.com/apartments/nc/wilmington/230-dixie-avenue-0/default.aspx,"230 DIXIE AVENUE,",Wilmington,NC,4.50,28403,"$1,415+","$1,597+","$2,228+","$1,800","$1,645+","$1,775+"
64,Burton Hills,https://www.rentcafe.com/apartments/nc/arden/burton-hills/default.aspx,"105 Sweeten Grass Hill,",Arden,NC,4.50,28074,"$1,678",Ask for pricing,"$2,228+","$1,800","$1,870+","$1,775+"
65,McArthur Landing,https://www.rentcafe.com/apartments/nc/fayetteville/mcarthur-landing-0/default.aspx,"2500 Mcarthur Landing Circle,",Fayetteville,NC,4.50,28311,"$1,678",Ask for pricing,"$1,300+","$1,450+","$1,870+","$1,775+"
66,5115 Park Place Apartments,https://www.rentcafe.com/apartments/nc/charlotte/5115-park-place/default.aspx,"5115 Park Road,",Charlotte,NC,4.50,28209,"$1,593+",Ask for pricing,"$1,300+","$1,450+","$1,931+","$1,775+"
67,The Park At San Remo,https://www.rentcafe.com/apartments/nc/charlotte/the-park-at-san-remo/default.aspx,"8242 Runaway Bay Dr.,",Charlotte,NC,4.50,28212,"$1,149",Ask for pricing,"$1,259",Ask for pricing,"$1,931+","$1,775+"
68,Carriage House,https://www.rentcafe.com/apartments/nc/greenville/carriage-house16/default.aspx,"2421 Charles Blvd,",Greenville,NC,4.50,27858,"$1,149",Ask for pricing,"$1,000",Ask for pricing,"$1,931+","$1,775+"
69,The Apartments At Blakeney,https://www.rentcafe.com/apartments/nc/charlotte/the-apartments-at-blakeney1/default.aspx,"8718 Wintersweet Lane,",Charlotte,NC,4.50,28277,"$1,591+",Ask for pricing,"$1,940+","$2,010+","$1,931+","$1,775+"
70,South Main Apartments,https://www.rentcafe.com/apartments/nc/hope-mills/south-main-apartments/default.aspx,"4003 William Bill Luther Drive,",Hope Mills,NC,4.50,28348,Ask for pricing,Ask for pricing,"$1,180+","$2,010+","$1,931+","$1,775+"
71,Adara Alexander Place,https://www.rentcafe.com/apartments/nc/raleigh/adara-alexander-place/default.aspx,"7610 Aura Loop #101,",Raleigh,NC,4.50,27617,"$1,589+",Ask for pricing,"$1,812+","$2,115+","$1,931+","$1,775+"
72,Kannan Station Apartment Homes,https://www.rentcafe.com/apartments/nc/kannapolis/kannon-station-apartment-homes/default.aspx,"1100 Coopers Ridge Dr,",Kannapolis,NC,4.50,28083,"$1,305+",Ask for pricing,"$1,812+","$2,115+",Ask for pricing,"$1,775+"
73,The Meadows Apartment Homes,https://www.rentcafe.com/apartments/nc/asheville/the-meadows-apartment-homes/default.aspx,"99 Ascension Drive,",Asheville,NC,4.50,28806,"$1,199",Ask for pricing,"$1,459","$1,649+",Ask for pricing,"$1,775+"
74,Retreat At Weaverville,https://www.rentcafe.com/apartments/nc/weaverville/retreat-at-weaverville/default.aspx,"61 Garrison Branch Road,",Weaverville,NC,4.50,28787,"$1,449+",Ask for pricing,"$1,699","$2,199",Ask for pricing,"$1,775+"
75,808 Hawthorne,https://www.rentcafe.com/apartments/nc/charlotte/808-hawthorne/default.aspx,"808 Hawthorne Lane,",Charlotte,NC,4.50,28204,"$1,344+",Ask for pricing,"$2,155+",Ask for pricing,Ask for pricing,"$1,775+"
76,Grace Park,https://www.rentcafe.com/apartments/nc/morrisville/grace-park0/default.aspx,"3109 Grace Park Drive,",Morrisville,NC,4.50,27560,Ask for pricing,Ask for pricing,"$1,725",Ask for pricing,Ask for pricing,"$2,400"
77,Radbourne Lake,https://www.rentcafe.com/apartments/nc/charlotte/radbourne-lake/default.aspx,"3209 Westbury Lake Dr,",Charlotte,NC,4.50,28269,"$1,189+",Ask for pricing,"$1,409+",Ask for pricing,Ask for pricing,"$2,400"
78,Millis And Main At Grandover,https://www.rentcafe.com/apartments/nc/jamestown/millis-and-main-at-grandover/default.aspx,"4301 Millis Road,",Jamestown,NC,4.50,27282,"$1,400",Ask for pricing,"$1,524+","$1,950",Ask for pricing,"$2,400"
79,Berkshire Ninth Street,https://www.rentcafe.com/apartments/nc/durham/berkshire-ninth-street/default.aspx,"749 Ninth Street,",Durham,NC,4.50,27705,Ask for pricing,"$1,788+","$1,524+","$1,950",Ask for pricing,"$2,400"
80,Blackwolf Run At Hedingham,https://www.rentcafe.com/apartments/nc/raleigh/blackwolf-run0/default.aspx,"2101 Blackwolf Run Lane,",Raleigh,NC,4.50,27604,"$1,387+","$1,788+","$1,629+","$1,746+",Ask for pricing,"$2,400"
81,Waters Edge Apartment Homes,https://www.rentcafe.com/apartments/nc/concord/waters-edge-apartment-homes-nc/default.aspx,"100 Waterview Dr,",Concord,NC,4.50,28027,"$1,195+","$1,045+","$1,629+","$1,746+","$1,350+","$2,400"
82,Arbor Glen,https://www.rentcafe.com/apartments/nc/eden/arbor-glen2/default.aspx,"643 S Pierce St,",Eden,NC,4.50,27288,"$1,195+","$1,045+","$1,629+","$1,746+","$1,350+","$2,400"
83,Elevate Haw River*,https://www.rentcafe.com/apartments/nc/graham/elevate-haw-river0/default.aspx,"2310 Vantage Point,",Graham,NC,4.50,27253,"$1,270+","$1,045+","$1,450+","$2,175+","$1,350+","$2,400"
84,Village At Cliffdale Apartment Homes,https://www.rentcafe.com/apartments/nc/fayetteville/village-at-cliffdale-apartment-homes/default.aspx,"567 Cutchen Lane,",Fayetteville,NC,4.50,28314,$955+,"$1,045+","$1,050+","$1,425+","$1,350+","$2,400"
85,Ellington Farms,https://www.rentcafe.com/apartments/nc/wilmington/ellington-farms-1/default.aspx,"505 Vorils Lane,",Wilmington,NC,4.50,28411,$955+,"$1,045+","$1,050+","$1,425+","$1,350+","$2,400"
86,Stonehenge,https://www.rentcafe.com/apartments/nc/raleigh/stonehenge-4/default.aspx,"7303 Hihenge Ct,",Raleigh,NC,4.50,27615,"$1,240+","$1,045+","$1,475+","$1,940+","$1,350+","$2,400"
87,LaVie SouthPark,https://www.rentcafe.com/apartments/nc/charlotte/lavie-southpark0/default.aspx,"5725 Carnegie Blvd,",Charlotte,NC,4.50,28209,"$1,518+",Ask for pricing,"$2,125+","$1,940+","$1,350+","$2,400"
88,Hawthorne At The Meadows,https://www.rentcafe.com/apartments/nc/kernersville/hawthorne-at-the-meadows/default.aspx,"1341 Ellis Forest Road,",Kernersville,NC,4.50,27284,"$1,183+",Ask for pricing,"$1,253+","$1,689","$1,350+","$2,400"
89,White Oak Grove Apartments,https://www.rentcafe.com/apartments/nc/asheville/white-oak-grove-apartment/default.aspx,"1 Hazel Knoll Circle, Suite 004,",Asheville,NC,4.50,28806,"$1,183+",Ask for pricing,"$1,253+","$1,689","$1,350+","$2,400"
90,Bexley At Preston,https://www.rentcafe.com/apartments/nc/morrisville/bexley-at-preston/default.aspx,"1300 Sterling Green Drive,",Morrisville,NC,4.50,27560,"$1,420+",Ask for pricing,"$1,689+","$1,964+","$1,350+","$2,400"
91,Link Apartments® Brookstown,https://www.rentcafe.com/apartments/nc/winston-salem/link-apartments-brookstown/default.aspx,"150 Peters Creek Parkway,",Winston Salem,NC,4.50,27101,"$1,395+",Ask for pricing,Ask for pricing,"$1,964+","$1,350+","$2,400"
92,The Tribute,https://www.rentcafe.com/apartments/nc/raleigh/the-tribute-1/default.aspx,"1300 Tribute Center Dr,",Raleigh,NC,4.50,27612,"$1,410+","$1,280+",Ask for pricing,"$1,964+","$1,645+","$2,400"
93,Reserve At Providence,https://www.rentcafe.com/apartments/nc/charlotte/reserve-at-providence/default.aspx,"6060 Reserve Drive,",Charlotte,NC,4.50,28270,"$1,149+","$1,280+","$1,385+","$1,964+","$1,645+","$1,775+"
94,Plant 64,https://www.rentcafe.com/apartments/nc/winston-salem/plant-64/default.aspx,"545 Power Plant Circle,",Winston-Salem,NC,4.50,27101,"$1,249+","$1,280+","$1,549+",Ask for pricing,"$1,645+","$1,775+"
95,Six Forks Station Apartments,https://www.rentcafe.com/apartments/nc/raleigh/six-forks-station2/default.aspx,"8501 New Brunswick Ln,",Raleigh,NC,4.50,27615,"$1,421+","$1,280+","$1,624+","$1,589+","$1,645+","$1,775+"
96,Parkstone At Knightdale,https://www.rentcafe.com/apartments/nc/knightdale/parkstone-at-knightdale/default.aspx,"1001 Park Commons Drive,",Knightdale,NC,4.50,27545,"$1,746+","$1,280+","$1,849+","$1,956+","$1,645+","$1,775+"
97,Sedgefield Apartments,https://www.rentcafe.com/apartments/nc/winston-salem/sedgefield-apartments1/default.aspx,"4755 Country Club Road,",Winston Salem,NC,4.50,27104,$965,"$1,280+","$1,145","$1,956+","$1,645+","$1,775+"
98,The Falls,https://www.rentcafe.com/apartments/nc/raleigh/the-falls-0/default.aspx,"4518 Tournament Drive,",Raleigh,NC,4.50,27612,"$1,138+","$1,154+","$1,289+","$1,956+","$1,645+","$1,775+"
99,Northpoint Apartments,https://www.rentcafe.com/apartments/nc/spring-lake/northpoint-apartments0/default.aspx,"16B Wedgewood Dr.,",Spring Lake,NC,4.50,28390,"$1,138+","$1,154+",$850+,"$1,956+","$1,645+","$1,775+"
