,name,link,address,city,state,ratings,zipcode,1 BED,2 BEDS,3 BEDS,Studio,2+ BEDS,4 BEDS,3+ BEDS
0,Madison Hall,https://www.rentcafe.com/apartments/nc/clemmons/madison-hall/default.aspx,6889 Idols Road,Clemmons,NC,,27012,,,,,,,
1,ARIUM Southpoint,https://www.rentcafe.com/apartments/nc/durham/arium-southpoint/default.aspx,5140 Copper Ridge Dr,Durham,NC,4.00,27707,"$1,205+","$1,465+",,,,,
2,Addison Point,https://www.rentcafe.com/apartments/nc/greensboro/addison-point/default.aspx,6227 Nile Place,Greensboro,NC,4.50,27409,"$1,195+","$1,310+",Ask for pricing,,,,
3,Willowwood Apartments,https://www.rentcafe.com/apartments/nc/raleigh/willowwood-apartments2/default.aspx,2814 O'berry St,Raleigh,NC,4.50,27607,"$1,195+","$1,795",Ask for pricing,,,,
4,Glennwood Apartments,https://www.rentcafe.com/apartments/nc/burlington/glennwood-apartments-0/default.aspx,1528 S. Mebane St.,Burlington,NC,4.50,27215,"$1,030","$1,795",Ask for pricing,$950,"$1,115",,
5,The Legends At Morganton Park,https://www.rentcafe.com/apartments/nc/southern-pines/the-legends-at-morganton-park/default.aspx,500 Legends Drive,Southern Pines,NC,4.50,28387,"$1,400+","$1,725+","$2,050",$950,"$1,115",,
6,Gallery Lofts,https://www.rentcafe.com/apartments/nc/winston-salem/gallery-lofts/default.aspx,181 E. 6Th Street,Winston-Salem,NC,4.50,27101,"$1,425","$1,694","$2,050",$950,"$1,115",,
7,The Legends,https://www.rentcafe.com/apartments/nc/hickory/the-legends/default.aspx,2101  21St Street SE,Hickory,NC,4.00,28602,"$1,230+","$1,467+","$1,754+",$950,"$1,115",,
8,The Chelsea,https://www.rentcafe.com/apartments/nc/raleigh/the-trestles/default.aspx,3008 Calvary Drive,Raleigh,NC,3.00,27604,"$1,004+","$1,165+","$1,754+",$950,"$1,115",,
9,Willow Run Apartments,https://www.rentcafe.com/apartments/nc/fayetteville/willow-run-apartments/default.aspx,157 Treetop Dr.,Fayetteville,NC,4.00,28311,Ask for pricing,$984+,Ask for pricing,$950,"$1,115",,
10,Ashford Place,https://www.rentcafe.com/apartments/nc/charlotte/ashford-place/default.aspx,905 Pineville Point Ave,Charlotte,NC,4.00,28217,"$1,176+","$1,265+","$1,470+",$950,"$1,115",,
11,Cary Pines Apartments,https://www.rentcafe.com/apartments/nc/cary/cary-pines-apartments-0/default.aspx,1331 Wicklow Court,Cary,NC,4.50,27511,"$1,350+","$1,605+","$2,005",$950,"$1,115",,
12,Harris Pond,https://www.rentcafe.com/apartments/nc/charlotte/harris-pond/default.aspx,8301 Harris Pond Lane,Charlotte,NC,4.50,28269,"$1,290+","$1,485+","$2,005",$950,"$1,115",,
13,ARIUM Lake Lynn,https://www.rentcafe.com/apartments/nc/raleigh/arium-lake-lynn/default.aspx,650 Lake Front Dr,Raleigh,NC,4.00,27613,$955+,"$1,295+","$2,005",$950,"$1,115",,
14,Redwood Monroe,https://www.rentcafe.com/apartments/nc/monroe/redwood-monroe/default.aspx,3409 A Redwood Living Lane,Monroe,NC,4.00,28110,$955+,"$1,699+","$2,005",$950,"$1,115",,
15,Morris Manor,https://www.rentcafe.com/apartments/nc/greensboro/morris-manor0/default.aspx,4230 United Street,Greensboro,NC,4.00,27407,$955+,$999+,Ask for pricing,$950,"$1,115",,
16,Bexley At Davidson,https://www.rentcafe.com/apartments/nc/davidson/bexley-at-davidson/default.aspx,455 Davidson Gateway Dr,Davidson,NC,5.00,28036,"$1,439+","$1,730+",Ask for pricing,$950,"$1,115",,
17,Waterford Square Apartments,https://www.rentcafe.com/apartments/nc/charlotte/waterford-square-apartments/default.aspx,7601 Waterford Square Drive,Charlotte,NC,3.50,28226,"$1,195+","$1,395+","$1,765+",$950,"$1,115",,
18,Rabbit Creek Apartments,https://www.rentcafe.com/apartments/nc/winston-salem/rabbit-creek-apartments/default.aspx,623 Ontario St.,Winston Salem,NC,3.50,27105,$800,Ask for pricing,"$1,765+",$950,"$1,115",,
19,1016 N. Oakwood St,https://www.rentcafe.com/apartments/nc/gastonia/1016-n-oakwood-st/default.aspx,1016 N. Oakwood St,Gastonia,NC,3.50,28052,$800,Ask for pricing,"$1,549",$950,"$1,115",,
20,Aventura Crossroads,https://www.rentcafe.com/apartments/nc/cary/aventura-crossroads/default.aspx,1010 Legacy Village Dr,Cary,NC,4.00,27518,$800,Ask for pricing,"$1,549",$950,"$1,115",,
21,Arlo,https://www.rentcafe.com/apartments/nc/charlotte/arlo1/default.aspx,1331 W Morehead St,Charlotte,NC,4.00,28208,"$1,523+","$2,371+",Ask for pricing,$950,"$1,115",,
22,Lofts At Lakeview Apartments,https://www.rentcafe.com/apartments/nc/durham/lofts-at-lakeview-apartments/default.aspx,2616 Erwin Rd,Durham,NC,4.00,27705,"$1,593+","$2,083+",Ask for pricing,"$1,814+","$1,115",,
23,Lory Of Hillsborough,https://www.rentcafe.com/apartments/nc/hillsborough/lory-of-hillsborough/default.aspx,600 S. Churton Street,Hillsborough,NC,3.00,27278,"$1,110+","$1,205+","$1,365+","$1,814+","$1,115",,
24,The Village Apartments,https://www.rentcafe.com/apartments/nc/raleigh/the-village-apartments-1/default.aspx,8810 Autumn Winds Drive,Raleigh,NC,3.00,27615,"$1,290+","$1,560+","$2,085+","$1,814+","$1,115",,
25,Villages At Raleigh Beach,https://www.rentcafe.com/apartments/nc/raleigh/villages-at-raleigh-beach0/default.aspx,2015 Wave Crest Drive,Raleigh,NC,4.00,27610,"$1,524+","$1,720+","$1,976+","$1,814+","$1,115",,
26,Link Apartments® Mint Street,https://www.rentcafe.com/apartments/nc/charlotte/link-apartments-174-mint-street/default.aspx,1200 S. Mint Street,Charlotte,NC,4.00,28203,"$1,542+","$2,227+","$1,976+","$1,381+","$1,115",,
27,Forest Hills,https://www.rentcafe.com/apartments/nc/wilmington/forest-hills3/default.aspx,505 Alpine Dr,Wilmington,NC,4.50,28403,Ask for pricing,"$1,175",Ask for pricing,"$1,381+","$1,115",,
28,Elan City Center,https://www.rentcafe.com/apartments/nc/raleigh/elan-city-center/default.aspx,510 N Wilmington Street,Raleigh,NC,4.50,27604,"$1,765+","$2,086+",Ask for pricing,"$1,633+","$1,115",,
29,Destination At Union,https://www.rentcafe.com/apartments/nc/gastonia/destination-at-union2/default.aspx,1272 Union Road,Gastonia,NC,4.50,28054,"$1,765+","$1,159+","$1,562+",$925+,"$1,115",,
30,Western Villa Townhomes,https://www.rentcafe.com/apartments/nc/clemmons/western-villas/default.aspx,132 Western Villa Drive,Clemmons,NC,4.50,27012,"$1,765+","$1,200","$1,562+",$925+,"$1,115",,
31,1213 W Friendly Ave,https://www.rentcafe.com/apartments/nc/greensboro/1213-w-friendly-ave/default.aspx,1213 W Friendly Ave,Greensboro,NC,4.50,27403,"$1,765+","$1,200","$1,562+",$925+,"$1,115",,
32,MAA South Tryon,https://www.rentcafe.com/apartments/nc/charlotte/maa-south-tryon/default.aspx,7601 Holliswood Court,Charlotte,NC,3.00,28217,"$1,533+","$1,413+",Ask for pricing,$925+,"$1,115",,
33,Cherry Cove Apartments,https://www.rentcafe.com/apartments/nc/kernersville/cherry-cove-apartments/default.aspx,Cherry Cove Apartments,Kernersville,NC,3.00,27284,Ask for pricing,$795,Ask for pricing,$925+,"$1,115",,
34,1652 N. Cherry Street,https://www.rentcafe.com/apartments/nc/winston-salem/1652-n-cherry-street/default.aspx,1652 N. Cherry Street,Winston-Salem,NC,3.00,27105,Ask for pricing,$795,Ask for pricing,$925+,"$1,115",,
35,Brookfield Apartments,https://www.rentcafe.com/apartments/nc/greenville/brookfield-at-lynndale/default.aspx,3300 S. Evans Street,Greenville,NC,3.00,27834,Ask for pricing,$775,Ask for pricing,$925+,"$1,115",,
36,82 Polaris Ave,https://www.rentcafe.com/apartments/nc/garner/82-polaris-ave/default.aspx,82 Polaris Ave,Garner,NC,3.00,27529,Ask for pricing,$775,Ask for pricing,$925+,"$1,115",,
37,The Enclave At Coatbridge,https://www.rentcafe.com/apartments/nc/charlotte/the-enclave-at-coatbridge/default.aspx,6220 Coatbridge Ln,Charlotte,NC,4.50,28212,Ask for pricing,$775,Ask for pricing,$925+,"$1,115","$3,200",
38,MAA Wade Park,https://www.rentcafe.com/apartments/nc/raleigh/maa-wade-park/default.aspx,5443 Wade Park Blvd.,Raleigh,NC,3.50,27607,"$1,465+",$775,Ask for pricing,"$1,310+","$1,830+","$3,200",
39,627 Glenbrook Road,https://www.rentcafe.com/apartments/nc/winston-salem/627-glenbrook-road/default.aspx,627 Glenbrook Road,Winston-Salem,NC,3.50,27105,"$1,465+",$775,Ask for pricing,"$1,310+","$1,830+","$3,200",
40,Apartments On Dumaine,https://www.rentcafe.com/apartments/nc/eden/apartments-on-dumaine/default.aspx,615 Dumaine St,Eden,NC,3.50,27288,$875,$950,Ask for pricing,"$1,310+","$1,830+","$3,200",
41,The Glenns Residences LLC,https://www.rentcafe.com/apartments/nc/elon/the-glenns-residences-llc/default.aspx,2434 West Webb Ave,Elon,NC,3.50,27217,Ask for pricing,$850,Ask for pricing,"$1,310+","$1,830+","$3,200",Ask for pricing
42,MAA Crabtree Valley,https://www.rentcafe.com/apartments/nc/raleigh/maa-crabtree/default.aspx,3300 Grove At Crabtree Crescent,Raleigh,NC,4.00,27613,"$1,298+","$1,558+","$1,648+","$1,310+","$1,830+","$3,200",Ask for pricing
43,Waterford Forest,https://www.rentcafe.com/apartments/nc/cary/waterford-forest/default.aspx,900 Waterford Forest Circle,Cary,NC,4.00,27513,"$1,198+","$1,458+","$1,648+","$1,310+","$1,830+","$3,200",Ask for pricing
44,"1059 S Sunset Drive Winston Salem, NC  27103",https://www.rentcafe.com/apartments/nc/winston-salem/southsunsetdrive1059/default.aspx,1059 S Sunset Dr,Winston Salem,NC,4.50,27103,"$1,198+","$1,458+","$1,195","$1,310+","$1,830+","$3,200",Ask for pricing
45,Teakwood Manor Apartments,https://www.rentcafe.com/apartments/nc/winston-salem/teakwood-manor-apartments0/default.aspx,Teakwood Manor Apts,Winston-Salem,NC,4.00,27103,$645+,"$1,458+","$1,195","$1,310+","$1,830+","$3,200",Ask for pricing
46,Hermitage At Beechtree,https://www.rentcafe.com/apartments/nc/cary/hermitage-at-beechtree/default.aspx,100 Hempstead Court,Cary,NC,4.00,27513,"$1,328+","$1,563+","$1,195","$1,310+","$1,830+","$3,200",Ask for pricing
47,624 Washington Street,https://www.rentcafe.com/apartments/nc/eden/624-washington-street/default.aspx,624 Washington Street,Eden,NC,4.00,27288,$700,Ask for pricing,"$1,195",$635,"$1,830+","$3,200",Ask for pricing
48,Oakden Motel,https://www.rentcafe.com/apartments/nc/charlotte/oakden-motel/default.aspx,5104 Wilkinson Blvd,Charlotte,NC,4.00,28208,$700,Ask for pricing,"$1,195",$635,"$1,830+","$3,200",Ask for pricing
49,"820 Granville Dr Winston Salem, NC  27101",https://www.rentcafe.com/apartments/nc/winston-salem/granvilledrive820/default.aspx,820 Granville Dr,Winston-Salem,NC,4.00,27101,$700,"$1,050","$1,195",$635,"$1,830+","$3,200",Ask for pricing
50,Madison Hall,https://www.rentcafe.com/apartments/nc/clemmons/madison-hall/default.aspx,"6889 Idols Road,",Clemmons,NC,4.00,27012,$700,"$1,050","$1,195",$635,"$1,830+","$3,200",Ask for pricing
51,ARIUM Southpoint,https://www.rentcafe.com/apartments/nc/durham/arium-southpoint/default.aspx,"5140 Copper Ridge Dr,",Durham,NC,4.00,27707,"$1,205+","$1,465+","$1,195",$635,"$1,830+","$3,200",Ask for pricing
52,Addison Point,https://www.rentcafe.com/apartments/nc/greensboro/addison-point/default.aspx,"6227 Nile Place,",Greensboro,NC,4.00,27409,"$1,195+","$1,310+",Ask for pricing,$635,"$1,830+","$3,200",Ask for pricing
53,Willowwood Apartments,https://www.rentcafe.com/apartments/nc/raleigh/willowwood-apartments2/default.aspx,"2814 O'berry St,",Raleigh,NC,4.00,27607,"$1,195+","$1,795",Ask for pricing,$635,"$1,830+","$3,200",Ask for pricing
54,Glennwood Apartments,https://www.rentcafe.com/apartments/nc/burlington/glennwood-apartments-0/default.aspx,"1528 S. Mebane St.,",Burlington,NC,4.00,27215,"$1,030","$1,795",Ask for pricing,$950,"$1,115","$3,200",Ask for pricing
55,The Legends At Morganton Park,https://www.rentcafe.com/apartments/nc/southern-pines/the-legends-at-morganton-park/default.aspx,"500 Legends Drive,",Southern Pines,NC,4.00,28387,"$1,400+","$1,725+","$2,050",$950,"$1,115","$3,200",Ask for pricing
56,Gallery Lofts,https://www.rentcafe.com/apartments/nc/winston-salem/gallery-lofts/default.aspx,"181 E. 6Th Street,",Winston-Salem,NC,4.00,27101,"$1,425","$1,694","$2,050",$950,"$1,115","$3,200",Ask for pricing
57,The Legends,https://www.rentcafe.com/apartments/nc/hickory/the-legends/default.aspx,"2101  21St Street SE,",Hickory,NC,4.00,28602,"$1,230+","$1,467+","$1,754+",$950,"$1,115","$3,200",Ask for pricing
58,The Chelsea,https://www.rentcafe.com/apartments/nc/raleigh/the-trestles/default.aspx,"3008 Calvary Drive,",Raleigh,NC,4.00,27604,"$1,004+","$1,165+","$1,754+",$950,"$1,115","$3,200",Ask for pricing
59,Willow Run Apartments,https://www.rentcafe.com/apartments/nc/fayetteville/willow-run-apartments/default.aspx,"157 Treetop Dr.,",Fayetteville,NC,4.00,28311,Ask for pricing,$984+,Ask for pricing,$950,"$1,115","$3,200",Ask for pricing
60,Ashford Place,https://www.rentcafe.com/apartments/nc/charlotte/ashford-place/default.aspx,"905 Pineville Point Ave,",Charlotte,NC,4.00,28217,"$1,176+","$1,265+","$1,470+",$950,"$1,115","$3,200",Ask for pricing
61,Cary Pines Apartments,https://www.rentcafe.com/apartments/nc/cary/cary-pines-apartments-0/default.aspx,"1331 Wicklow Court,",Cary,NC,4.00,27511,"$1,350+","$1,605+","$2,005",$950,"$1,115","$3,200",Ask for pricing
62,Harris Pond,https://www.rentcafe.com/apartments/nc/charlotte/harris-pond/default.aspx,"8301 Harris Pond Lane,",Charlotte,NC,4.00,28269,"$1,290+","$1,485+","$2,005",$950,"$1,115","$3,200",Ask for pricing
63,ARIUM Lake Lynn,https://www.rentcafe.com/apartments/nc/raleigh/arium-lake-lynn/default.aspx,"650 Lake Front Dr,",Raleigh,NC,4.00,27613,$955+,"$1,295+","$2,005",$950,"$1,115","$3,200",Ask for pricing
64,Redwood Monroe,https://www.rentcafe.com/apartments/nc/monroe/redwood-monroe/default.aspx,"3409 A Redwood Living Lane,",Monroe,NC,4.00,28110,$955+,"$1,699+","$2,005",$950,"$1,115","$3,200",Ask for pricing
65,Morris Manor,https://www.rentcafe.com/apartments/nc/greensboro/morris-manor0/default.aspx,"4230 United Street,",Greensboro,NC,4.00,27407,$955+,$999+,Ask for pricing,$950,"$1,115","$3,200",Ask for pricing
66,Bexley At Davidson,https://www.rentcafe.com/apartments/nc/davidson/bexley-at-davidson/default.aspx,"455 Davidson Gateway Dr,",Davidson,NC,4.00,28036,"$1,439+","$1,730+",Ask for pricing,$950,"$1,115","$3,200",Ask for pricing
67,Waterford Square Apartments,https://www.rentcafe.com/apartments/nc/charlotte/waterford-square-apartments/default.aspx,"7601 Waterford Square Drive,",Charlotte,NC,4.00,28226,"$1,195+","$1,395+","$1,765+",$950,"$1,115","$3,200",Ask for pricing
68,Rabbit Creek Apartments,https://www.rentcafe.com/apartments/nc/winston-salem/rabbit-creek-apartments/default.aspx,"623 Ontario St.,",Winston Salem,NC,4.00,27105,$800,Ask for pricing,"$1,765+",$950,"$1,115","$3,200",Ask for pricing
69,1016 N. Oakwood St,https://www.rentcafe.com/apartments/nc/gastonia/1016-n-oakwood-st/default.aspx,"1016 N. Oakwood St,",Gastonia,NC,4.00,28052,$800,Ask for pricing,"$1,549",$950,"$1,115","$3,200",Ask for pricing
70,Aventura Crossroads,https://www.rentcafe.com/apartments/nc/cary/aventura-crossroads/default.aspx,"1010 Legacy Village Dr,",Cary,NC,4.00,27518,$800,Ask for pricing,"$1,549",$950,"$1,115","$3,200",Ask for pricing
71,Arlo,https://www.rentcafe.com/apartments/nc/charlotte/arlo1/default.aspx,"1331 W Morehead St,",Charlotte,NC,4.00,28208,"$1,523+","$2,371+",Ask for pricing,$950,"$1,115","$3,200",Ask for pricing
72,Lofts At Lakeview Apartments,https://www.rentcafe.com/apartments/nc/durham/lofts-at-lakeview-apartments/default.aspx,"2616 Erwin Rd,",Durham,NC,4.00,27705,"$1,593+","$2,083+",Ask for pricing,"$1,814+","$1,115","$3,200",Ask for pricing
73,Lory Of Hillsborough,https://www.rentcafe.com/apartments/nc/hillsborough/lory-of-hillsborough/default.aspx,"600 S. Churton Street,",Hillsborough,NC,4.00,27278,"$1,110+","$1,205+","$1,365+","$1,814+","$1,115","$3,200",Ask for pricing
74,The Village Apartments,https://www.rentcafe.com/apartments/nc/raleigh/the-village-apartments-1/default.aspx,"8810 Autumn Winds Drive,",Raleigh,NC,4.00,27615,"$1,290+","$1,560+","$2,085+","$1,814+","$1,115","$3,200",Ask for pricing
75,Villages At Raleigh Beach,https://www.rentcafe.com/apartments/nc/raleigh/villages-at-raleigh-beach0/default.aspx,"2015 Wave Crest Drive,",Raleigh,NC,4.00,27610,"$1,524+","$1,720+","$1,976+","$1,814+","$1,115","$3,200",Ask for pricing
76,Link Apartments® Mint Street,https://www.rentcafe.com/apartments/nc/charlotte/link-apartments-174-mint-street/default.aspx,"1200 S. Mint Street,",Charlotte,NC,4.00,28203,"$1,542+","$2,227+","$1,976+","$1,381+","$1,115","$3,200",Ask for pricing
77,Forest Hills,https://www.rentcafe.com/apartments/nc/wilmington/forest-hills3/default.aspx,"505 Alpine Dr,",Wilmington,NC,4.00,28403,Ask for pricing,"$1,175",Ask for pricing,"$1,381+","$1,115","$3,200",Ask for pricing
78,Elan City Center,https://www.rentcafe.com/apartments/nc/raleigh/elan-city-center/default.aspx,"510 N Wilmington Street,",Raleigh,NC,4.00,27604,"$1,765+","$2,086+",Ask for pricing,"$1,633+","$1,115","$3,200",Ask for pricing
79,Destination At Union,https://www.rentcafe.com/apartments/nc/gastonia/destination-at-union2/default.aspx,"1272 Union Road,",Gastonia,NC,4.00,28054,"$1,765+","$1,159+","$1,562+",$925+,"$1,115","$3,200",Ask for pricing
80,Western Villa Townhomes,https://www.rentcafe.com/apartments/nc/clemmons/western-villas/default.aspx,"132 Western Villa Drive,",Clemmons,NC,4.00,27012,"$1,765+","$1,200","$1,562+",$925+,"$1,115","$3,200",Ask for pricing
81,1213 W Friendly Ave,https://www.rentcafe.com/apartments/nc/greensboro/1213-w-friendly-ave/default.aspx,"1213 W Friendly Ave,",Greensboro,NC,4.00,27403,"$1,765+","$1,200","$1,562+",$925+,"$1,115","$3,200",Ask for pricing
82,MAA South Tryon,https://www.rentcafe.com/apartments/nc/charlotte/maa-south-tryon/default.aspx,"7601 Holliswood Court,",Charlotte,NC,4.00,28217,"$1,533+","$1,413+",Ask for pricing,$925+,"$1,115","$3,200",Ask for pricing
83,Cherry Cove Apartments,https://www.rentcafe.com/apartments/nc/kernersville/cherry-cove-apartments/default.aspx,"Cherry Cove Apartments,",Kernersville,NC,4.00,27284,Ask for pricing,$795,Ask for pricing,$925+,"$1,115","$3,200",Ask for pricing
84,1652 N. Cherry Street,https://www.rentcafe.com/apartments/nc/winston-salem/1652-n-cherry-street/default.aspx,"1652 N. Cherry Street,",Winston-Salem,NC,4.00,27105,Ask for pricing,$795,Ask for pricing,$925+,"$1,115","$3,200",Ask for pricing
85,Brookfield Apartments,https://www.rentcafe.com/apartments/nc/greenville/brookfield-at-lynndale/default.aspx,"3300 S. Evans Street,",Greenville,NC,4.00,27834,Ask for pricing,$775,Ask for pricing,$925+,"$1,115","$3,200",Ask for pricing
86,82 Polaris Ave,https://www.rentcafe.com/apartments/nc/garner/82-polaris-ave/default.aspx,"82 Polaris Ave,",Garner,NC,4.00,27529,Ask for pricing,$775,Ask for pricing,$925+,"$1,115","$3,200",Ask for pricing
87,The Enclave At Coatbridge,https://www.rentcafe.com/apartments/nc/charlotte/the-enclave-at-coatbridge/default.aspx,"6220 Coatbridge Ln,",Charlotte,NC,4.00,28212,Ask for pricing,$775,Ask for pricing,$925+,"$1,115","$3,200",Ask for pricing
88,MAA Wade Park,https://www.rentcafe.com/apartments/nc/raleigh/maa-wade-park/default.aspx,"5443 Wade Park Blvd.,",Raleigh,NC,4.00,27607,"$1,465+",$775,Ask for pricing,"$1,310+","$1,830+","$3,200",Ask for pricing
89,627 Glenbrook Road,https://www.rentcafe.com/apartments/nc/winston-salem/627-glenbrook-road/default.aspx,"627 Glenbrook Road,",Winston-Salem,NC,4.00,27105,"$1,465+",$775,Ask for pricing,"$1,310+","$1,830+","$3,200",Ask for pricing
90,Apartments On Dumaine,https://www.rentcafe.com/apartments/nc/eden/apartments-on-dumaine/default.aspx,"615 Dumaine St,",Eden,NC,4.00,27288,$875,$950,Ask for pricing,"$1,310+","$1,830+","$3,200",Ask for pricing
91,The Glenns Residences LLC,https://www.rentcafe.com/apartments/nc/elon/the-glenns-residences-llc/default.aspx,"2434 West Webb Ave,",Elon,NC,4.00,27217,Ask for pricing,$850,Ask for pricing,"$1,310+","$1,830+","$3,200",Ask for pricing
92,MAA Crabtree Valley,https://www.rentcafe.com/apartments/nc/raleigh/maa-crabtree/default.aspx,"3300 Grove At Crabtree Crescent,",Raleigh,NC,4.00,27613,"$1,298+","$1,558+","$1,648+","$1,310+","$1,830+","$3,200",Ask for pricing
93,Waterford Forest,https://www.rentcafe.com/apartments/nc/cary/waterford-forest/default.aspx,"900 Waterford Forest Circle,",Cary,NC,4.00,27513,"$1,198+","$1,458+","$1,648+","$1,310+","$1,830+","$3,200",Ask for pricing
94,"1059 S Sunset Drive Winston Salem, NC  27103",https://www.rentcafe.com/apartments/nc/winston-salem/southsunsetdrive1059/default.aspx,"1059 S Sunset Dr,",Winston Salem,NC,4.00,27103,"$1,198+","$1,458+","$1,195","$1,310+","$1,830+","$3,200",Ask for pricing
95,Teakwood Manor Apartments,https://www.rentcafe.com/apartments/nc/winston-salem/teakwood-manor-apartments0/default.aspx,"Teakwood Manor Apts,",Winston-Salem,NC,4.00,27103,$645+,"$1,458+","$1,195","$1,310+","$1,830+","$3,200",Ask for pricing
96,Hermitage At Beechtree,https://www.rentcafe.com/apartments/nc/cary/hermitage-at-beechtree/default.aspx,"100 Hempstead Court,",Cary,NC,4.00,27513,"$1,328+","$1,563+","$1,195","$1,310+","$1,830+","$3,200",Ask for pricing
97,624 Washington Street,https://www.rentcafe.com/apartments/nc/eden/624-washington-street/default.aspx,"624 Washington Street,",Eden,NC,4.00,27288,$700,Ask for pricing,"$1,195",$635,"$1,830+","$3,200",Ask for pricing
98,Oakden Motel,https://www.rentcafe.com/apartments/nc/charlotte/oakden-motel/default.aspx,"5104 Wilkinson Blvd,",Charlotte,NC,4.00,28208,$700,Ask for pricing,"$1,195",$635,"$1,830+","$3,200",Ask for pricing
99,"820 Granville Dr Winston Salem, NC  27101",https://www.rentcafe.com/apartments/nc/winston-salem/granvilledrive820/default.aspx,"820 Granville Dr,",Winston-Salem,NC,4.00,27101,$700,"$1,050","$1,195",$635,"$1,830+","$3,200",Ask for pricing
